{"type":"FeatureCollection","features":[{"type":"Feature","geometry":{"type":"MultiPolygon","coordinates":[[[[106.76866,10.74314],[106.77085,10.74529],[106.77415,10.74769],[106.77732,10.74937],[106.78534,10.75304],[106.79689,10.75777],[106.79932,10.759],[106.80138,10.76041],[106.80322,10.76285],[106.80385,10.76437],[106.80521,10.76864],[106.80607,10.77033],[106.80732,10.77196],[106.81009,10.77467],[106.81281,10.77729],[106.81454,10.77865],[106.81632,10.7797],[106.81942,10.78089],[106.82097,10.781],[106.82253,10.78052],[106.82347,10.77981],[106.82507,10.77785],[106.82562,10.77592],[106.82574,10.77398],[106.82533,10.77127],[106.82382,10.76689],[106.82315,10.76433],[106.82304,10.76242],[106.82346,10.76077],[106.82483,10.75958],[106.82664,10.75955],[106.8283,10.76022],[106.82932,10.76102],[106.83136,10.7642],[106.83559,10.7692],[106.83903,10.772],[106.84262,10.77419],[106.84506,10.7751],[106.84658,10.7754],[106.84871,10.7755],[106.85212,10.77494],[106.85426,10.77358],[106.85842,10.76912],[106.86094,10.76672],[106.86241,10.76574],[106.86529,10.76464],[106.8669,10.76448],[106.86947,10.76483],[106.87072,10.76547],[106.87263,10.76693],[106.8738,10.7687],[106.87416,10.77046],[106.87387,10.77229],[106.87335,10.77364],[106.87136,10.77723],[106.86871,10.78025],[106.86544,10.78373],[106.86467,10.78518],[106.86427,10.78845],[106.86473,10.78997],[106.86574,10.79122],[106.86854,10.79319],[106.87568,10.79851],[106.87868,10.80213],[106.88069,10.80482],[106.88156,10.80653],[106.88176,10.80837],[106.88155,10.81066],[106.88106,10.81247],[106.87812,10.81854],[106.87714,10.81984],[106.87084,10.82629],[106.86742,10.83057],[106.86277,10.83609],[106.85752,10.84193],[106.8562,10.84367],[106.85474,10.84627],[106.85248,10.85068],[106.8504,10.85526],[106.84849,10.86003],[106.84682,10.8649],[106.84905,10.86903],[106.84996,10.8712],[106.85132,10.87531],[106.84816,10.87941],[106.84662,10.88187],[106.84498,10.88506],[106.84342,10.88877],[106.84145,10.89419],[106.84013,10.89885],[106.83929,10.903],[106.83585,10.90334],[106.83457,10.90367],[106.83347,10.90467],[106.83267,10.90635],[106.83212,10.90675],[106.83078,10.9063],[106.82985,10.90485],[106.82808,10.90391],[106.82653,10.90382],[106.82355,10.9028],[106.82232,10.90315],[106.82184,10.90384],[106.82136,10.90317],[106.81721,10.90316],[106.81611,10.90335],[106.8148,10.90469],[106.81464,10.9066],[106.81397,10.90741],[106.81515,10.90784],[106.81519,10.91035],[106.8137,10.9131],[106.81239,10.91416],[106.81144,10.9158],[106.81187,10.91777],[106.81084,10.91801],[106.80916,10.91915],[106.80884,10.91972],[106.80755,10.92038],[106.80517,10.92072],[106.80339,10.91996],[106.80199,10.91981],[106.79878,10.92195],[106.7971,10.92211],[106.79644,10.92267],[106.79465,10.92304],[106.79447,10.9237],[106.78818,10.92215],[106.78806,10.92286],[106.7892,10.92423],[106.79177,10.9266],[106.79137,10.92849],[106.79175,10.92954],[106.79161,10.93056],[106.79075,10.93185],[106.78843,10.93294],[106.78745,10.93281],[106.7857,10.93329],[106.7837,10.93275],[106.78335,10.93581],[106.78267,10.93663],[106.78204,10.93821],[106.7807,10.93771],[106.7793,10.93682],[106.77777,10.93773],[106.77832,10.93912],[106.77699,10.93932],[106.77639,10.93863],[106.77542,10.94031],[106.77459,10.9399],[106.77266,10.9412],[106.7701,10.94424],[106.76982,10.94642],[106.76932,10.94759],[106.76952,10.94908],[106.77,10.94965],[106.76985,10.95071],[106.77022,10.95129],[106.77101,10.95101],[106.77088,10.95204],[106.7702,10.95251],[106.76874,10.95173],[106.76749,10.95212],[106.7664,10.95185],[106.76446,10.95219],[106.76282,10.95341],[106.76413,10.95606],[106.76481,10.95685],[106.76459,10.95789],[106.76516,10.95856],[106.76483,10.95979],[106.76241,10.96103],[106.76197,10.96187],[106.76209,10.9633],[106.76362,10.96472],[106.76432,10.96345],[106.76578,10.9644],[106.76673,10.96416],[106.76661,10.96345],[106.76793,10.96445],[106.76959,10.96426],[106.77003,10.965],[106.77133,10.96526],[106.77158,10.96474],[106.77117,10.96343],[106.77206,10.96309],[106.77294,10.96179],[106.773,10.95987],[106.77356,10.95925],[106.77552,10.95925],[106.77661,10.9601],[106.7779,10.96196],[106.77891,10.9628],[106.78064,10.96371],[106.78325,10.96462],[106.78443,10.96583],[106.78636,10.96723],[106.78852,10.96822],[106.79102,10.96894],[106.79354,10.96997],[106.79588,10.97127],[106.79631,10.97205],[106.79627,10.97327],[106.79483,10.97551],[106.79339,10.97683],[106.78954,10.97999],[106.78566,10.98361],[106.78319,10.98574],[106.78193,10.98735],[106.77917,10.99215],[106.77783,10.99511],[106.77474,11.00324],[106.77448,11.00451],[106.77492,11.00683],[106.77578,11.00809],[106.77695,11.00909],[106.78108,11.01135],[106.78296,11.01293],[106.784,11.01491],[106.78447,11.01745],[106.78531,11.01827],[106.78767,11.01884],[106.78933,11.01967],[106.79229,11.02253],[106.79362,11.02326],[106.79653,11.02413],[106.80028,11.02497],[106.80501,11.0254],[106.80829,11.02609],[106.80989,11.02697],[106.81105,11.02815],[106.8128,11.03139],[106.81315,11.03276],[106.81316,11.03448],[106.81262,11.03706],[106.81176,11.04024],[106.81023,11.04409],[106.8082,11.0468],[106.80622,11.04853],[106.80277,11.05095],[106.80024,11.05239],[106.79901,11.05389],[106.79858,11.05549],[106.79876,11.05712],[106.80045,11.05899],[106.80223,11.05993],[106.80519,11.06087],[106.80934,11.0617],[106.81525,11.0632],[106.81987,11.06461],[106.82329,11.0654],[106.82494,11.06532],[106.82818,11.06426],[106.82946,11.0629],[106.83008,11.06183],[106.8314,11.05781],[106.83236,11.05563],[106.83502,11.0508],[106.83715,11.04559],[106.83806,11.04287],[106.83965,11.0405],[106.84218,11.03818],[106.84523,11.03641],[106.84842,11.03509],[106.85102,11.03446],[106.8559,11.03363],[106.85747,11.03307],[106.85935,11.03194],[106.8607,11.03072],[106.86441,11.02648],[106.86627,11.02406],[106.86832,11.02213],[106.87011,11.02097],[106.87302,11.01983],[106.87496,11.02003],[106.87798,11.02123],[106.88421,11.02446],[106.88881,11.02648],[106.89244,11.02763],[106.89381,11.02788],[106.89608,11.02784],[106.89805,11.02735],[106.89945,11.02665],[106.90148,11.02512],[106.90302,11.0236],[106.90471,11.02263],[106.90707,11.02215],[106.9087,11.02284],[106.91031,11.02441],[106.91125,11.0269],[106.9119,11.03413],[106.91199,11.03791],[106.91223,11.04005],[106.9126,11.04115],[106.91354,11.04239],[106.91517,11.0434],[106.92025,11.04542],[106.92194,11.04636],[106.92306,11.04744],[106.92347,11.04874],[106.9234,11.05062],[106.92215,11.05442],[106.92242,11.056],[106.92388,11.05719],[106.92596,11.05812],[106.92836,11.05992],[106.93039,11.06324],[106.93204,11.06454],[106.93352,11.06486],[106.93502,11.06468],[106.93644,11.06396],[106.93767,11.0627],[106.93861,11.06121],[106.94002,11.05841],[106.94108,11.05732],[106.9429,11.0568],[106.94446,11.05698],[106.94627,11.05776],[106.94783,11.05948],[106.94838,11.06111],[106.94854,11.06565],[106.94903,11.0673],[106.95088,11.06953],[106.95179,11.07013],[106.95252,11.07128],[106.95241,11.07279],[106.94996,11.07462],[106.9474,11.07555],[106.94537,11.07702],[106.94492,11.07832],[106.94497,11.07985],[106.94554,11.08135],[106.9466,11.08284],[106.9471,11.08446],[106.94705,11.08627],[106.94666,11.08819],[106.94682,11.0893],[106.9475,11.09043],[106.94946,11.09239],[106.9503,11.0935],[106.95205,11.09695],[106.95358,11.09815],[106.95679,11.09867],[106.95789,11.0991],[106.95917,11.10018],[106.95957,11.10143],[106.95937,11.10258],[106.95758,11.10474],[106.95724,11.10578],[106.95747,11.10687],[106.95814,11.10763],[106.9601,11.10807],[106.96208,11.10776],[106.96526,11.10804],[106.96572,11.10935],[106.96534,11.11179],[106.96366,11.11429],[106.96268,11.11649],[106.9619,11.11728],[106.95918,11.11914],[106.95746,11.12167],[106.95635,11.12406],[106.95563,11.12626],[106.9534,11.12896],[106.95338,11.13015],[106.95392,11.13091],[106.95555,11.13206],[106.95631,11.13293],[106.95681,11.13411],[106.95694,11.13569],[106.95622,11.13712],[106.95482,11.13806],[106.95413,11.13891],[106.95393,11.1404],[106.95439,11.1415],[106.95507,11.14196],[106.95691,11.14216],[106.95991,11.14204],[106.96346,11.14229],[106.96512,11.14258],[106.96602,11.14327],[106.96669,11.14488],[106.96557,11.14883],[106.964,11.15002],[106.95926,11.15109],[106.95648,11.15228],[106.95563,11.15321],[106.95542,11.15562],[106.95565,11.15848],[106.95512,11.1602],[106.95383,11.16312],[106.95285,11.16404],[106.94864,11.16593],[106.94692,11.16626],[106.94512,11.16621],[106.94233,11.16706],[106.94144,11.16768],[106.94106,11.16919],[106.94474,11.17309],[106.94581,11.17533],[106.94581,11.17648],[106.94526,11.17733],[106.94397,11.17761],[106.942,11.17748],[106.94112,11.17787],[106.93937,11.17925],[106.9375,11.18186],[106.93641,11.18474],[106.93466,11.18759],[106.93336,11.18897],[106.9324,11.18945],[106.93066,11.18979],[106.92791,11.18981],[106.92682,11.18943],[106.92453,11.18709],[106.92336,11.18685],[106.92192,11.18781],[106.92149,11.18875],[106.92118,11.19154],[106.91988,11.19291],[106.91847,11.19301],[106.91615,11.19282],[106.91367,11.19328],[106.91237,11.19311],[106.90873,11.19203],[106.90779,11.19202],[106.90661,11.1926],[106.90594,11.19349],[106.90563,11.19495],[106.90602,11.19618],[106.9071,11.1976],[106.90758,11.19979],[106.90732,11.20245],[106.90671,11.20391],[106.90576,11.20489],[106.90266,11.20623],[106.90158,11.20765],[106.90141,11.20986],[106.90182,11.21055],[106.90291,11.21092],[106.90731,11.21089],[106.90839,11.21133],[106.90956,11.21279],[106.91095,11.21391],[106.9151,11.21425],[106.9159,11.21494],[106.91656,11.21612],[106.91799,11.21966],[106.91812,11.22208],[106.91712,11.22404],[106.91456,11.22572],[106.91406,11.22665],[106.9153,11.22928],[106.91489,11.23041],[106.91368,11.23036],[106.91327,11.23176],[106.91373,11.23256],[106.91549,11.23358],[106.91665,11.23465],[106.91828,11.23503],[106.91818,11.23561],[106.91407,11.23593],[106.91201,11.23577],[106.91178,11.23633],[106.91321,11.23735],[106.91101,11.23848],[106.91066,11.24048],[106.9108,11.24138],[106.91229,11.24202],[106.91442,11.24065],[106.91527,11.24175],[106.91673,11.2426],[106.91788,11.24253],[106.91767,11.24106],[106.91845,11.24043],[106.91889,11.24085],[106.91876,11.24229],[106.91931,11.24264],[106.92009,11.24158],[106.92213,11.24142],[106.92334,11.24174],[106.92428,11.24348],[106.92578,11.24454],[106.92712,11.24497],[106.92811,11.24363],[106.93134,11.24434],[106.93172,11.24584],[106.93017,11.24749],[106.92908,11.24782],[106.9271,11.24667],[106.92643,11.24718],[106.92641,11.24793],[106.92806,11.24875],[106.92772,11.24997],[106.9278,11.25211],[106.926,11.25259],[106.92552,11.25307],[106.9252,11.25458],[106.92548,11.25616],[106.92685,11.25616],[106.92731,11.25815],[106.92682,11.25879],[106.92602,11.25848],[106.92603,11.2597],[106.92696,11.26033],[106.92695,11.26103],[106.92578,11.26179],[106.92543,11.2633],[106.92373,11.26379],[106.92377,11.26434],[106.92488,11.26514],[106.9259,11.26514],[106.92648,11.26442],[106.9276,11.26447],[106.92786,11.26515],[106.92553,11.26728],[106.92554,11.26765],[106.92715,11.26778],[106.92749,11.26875],[106.92681,11.26953],[106.92497,11.27046],[106.92462,11.27118],[106.92617,11.27224],[106.92797,11.27221],[106.92907,11.27304],[106.92914,11.27395],[106.93023,11.27451],[106.93045,11.27508],[106.92972,11.27791],[106.93042,11.27889],[106.93109,11.27789],[106.93209,11.27912],[106.93297,11.27866],[106.9335,11.28003],[106.93213,11.28176],[106.93337,11.28239],[106.93354,11.28352],[106.93438,11.28483],[106.93426,11.28589],[106.93326,11.28719],[106.93376,11.28767],[106.93638,11.28722],[106.93628,11.28805],[106.93761,11.28834],[106.9378,11.2892],[106.93916,11.29002],[106.93893,11.29146],[106.93929,11.29233],[106.94086,11.29272],[106.94167,11.29375],[106.94146,11.29482],[106.93941,11.29582],[106.93741,11.29637],[106.93785,11.29727],[106.93908,11.2965],[106.93984,11.29664],[106.93995,11.29743],[106.93916,11.29881],[106.93981,11.30129],[106.93949,11.30189],[106.93853,11.3015],[106.93853,11.30222],[106.93992,11.30315],[106.93935,11.30405],[106.93717,11.30546],[106.93804,11.30741],[106.93771,11.30834],[106.93703,11.30816],[106.93661,11.3093],[106.93804,11.30944],[106.93919,11.31019],[106.93858,11.31047],[106.93787,11.31242],[106.94017,11.3126],[106.9415,11.31243],[106.94103,11.31336],[106.94188,11.31382],[106.94176,11.31468],[106.94307,11.31597],[106.94309,11.31661],[106.94391,11.3169],[106.9443,11.31816],[106.94488,11.31734],[106.94708,11.31794],[106.94766,11.31867],[106.94745,11.31956],[106.94793,11.31993],[106.9476,11.32083],[106.94843,11.32148],[106.94993,11.32152],[106.95046,11.32206],[106.95124,11.32171],[106.95238,11.32351],[106.95191,11.32387],[106.95267,11.32484],[106.95267,11.32687],[106.95232,11.3276],[106.95321,11.32879],[106.95245,11.32992],[106.95269,11.33052],[106.95147,11.33113],[106.95161,11.3332],[106.95064,11.33301],[106.95043,11.33425],[106.95145,11.33502],[106.95114,11.33608],[106.95113,11.33776],[106.9503,11.33904],[106.9489,11.33996],[106.9485,11.33969],[106.94839,11.34097],[106.94749,11.34097],[106.94773,11.34203],[106.94708,11.34209],[106.94622,11.34295],[106.94649,11.34407],[106.94607,11.3459],[106.94545,11.3461],[106.94438,11.34723],[106.94362,11.35049],[106.94384,11.35185],[106.94436,11.35235],[106.94488,11.35424],[106.94178,11.35559],[106.94066,11.35629],[106.93894,11.35559],[106.93738,11.35533],[106.93434,11.35533],[106.93435,11.35434],[106.93135,11.3534],[106.92939,11.35475],[106.92802,11.35431],[106.92676,11.35442],[106.92285,11.3541],[106.92165,11.35304],[106.92118,11.35211],[106.91907,11.35193],[106.91824,11.35393],[106.91817,11.35531],[106.91767,11.35585],[106.91482,11.35607],[106.91374,11.35498],[106.91177,11.35483],[106.91152,11.35386],[106.91058,11.35401],[106.91006,11.35332],[106.90911,11.35381],[106.90789,11.35362],[106.90653,11.35228],[106.9052,11.34989],[106.90468,11.34943],[106.90434,11.34806],[106.90354,11.34732],[106.904,11.34512],[106.90395,11.344],[106.90342,11.34358],[106.90238,11.34374],[106.90295,11.34274],[106.90201,11.34134],[106.90095,11.34152],[106.90041,11.34036],[106.88932,11.34058],[106.88413,11.33959],[106.88331,11.33823],[106.88138,11.33604],[106.88113,11.33512],[106.88019,11.33412],[106.87804,11.33244],[106.87585,11.32991],[106.87479,11.32895],[106.87322,11.32812],[106.8723,11.32717],[106.87134,11.32556],[106.87,11.3219],[106.8698,11.32054],[106.87186,11.31824],[106.87276,11.31545],[106.87302,11.3139],[106.87441,11.31159],[106.87494,11.30957],[106.87548,11.30855],[106.87503,11.30737],[106.87448,11.30859],[106.87335,11.3095],[106.87175,11.31],[106.87067,11.30965],[106.86919,11.31107],[106.86648,11.31174],[106.86591,11.31056],[106.8652,11.31081],[106.86534,11.31208],[106.86639,11.31329],[106.8666,11.3145],[106.86551,11.31494],[106.86364,11.31434],[106.86242,11.31428],[106.85897,11.3152],[106.8575,11.31437],[106.85699,11.31518],[106.85726,11.31687],[106.85558,11.32193],[106.85671,11.32435],[106.85643,11.32692],[106.85539,11.3289],[106.85578,11.32999],[106.85676,11.3308],[106.85838,11.33506],[106.85973,11.33583],[106.86138,11.33537],[106.8625,11.33733],[106.86329,11.33936],[106.86319,11.34173],[106.86271,11.34292],[106.86143,11.34442],[106.85935,11.34542],[106.85707,11.34546],[106.8567,11.34599],[106.85691,11.34706],[106.8584,11.3485],[106.85999,11.34864],[106.8603,11.34984],[106.85938,11.35084],[106.85866,11.34994],[106.85777,11.35042],[106.85602,11.35258],[106.85576,11.35359],[106.85618,11.35507],[106.85671,11.35815],[106.85513,11.35792],[106.85445,11.36042],[106.85492,11.36143],[106.85636,11.36017],[106.85713,11.35995],[106.8584,11.36091],[106.85856,11.36183],[106.85768,11.36297],[106.858,11.36447],[106.85719,11.36632],[106.85736,11.36838],[106.85712,11.36902],[106.85571,11.36943],[106.85555,11.37012],[106.85707,11.37238],[106.85712,11.3734],[106.85655,11.37389],[106.8567,11.37492],[106.85568,11.37472],[106.85537,11.37581],[106.85454,11.3767],[106.85225,11.37671],[106.85103,11.37618],[106.84941,11.37596],[106.84749,11.37608],[106.8441,11.37516],[106.84201,11.37499],[106.83974,11.37573],[106.8379,11.37702],[106.83552,11.3772],[106.83563,11.37948],[106.83427,11.38055],[106.83076,11.38045],[106.82674,11.38064],[106.82554,11.38268],[106.82505,11.38418],[106.82197,11.38145],[106.81843,11.37868],[106.81837,11.37782],[106.8177,11.37731],[106.81639,11.37726],[106.81326,11.37662],[106.81155,11.37583],[106.80999,11.37613],[106.8076,11.37791],[106.80354,11.37943],[106.80252,11.38049],[106.80045,11.38122],[106.80023,11.38275],[106.79855,11.38253],[106.79862,11.38164],[106.79748,11.38164],[106.79655,11.3807],[106.79618,11.37954],[106.79368,11.37954],[106.79361,11.383],[106.78941,11.38293],[106.78929,11.3859],[106.78848,11.38588],[106.78904,11.40122],[106.78114,11.40126],[106.77472,11.40207],[106.76946,11.40405],[106.77008,11.40563],[106.77118,11.40941],[106.77132,11.41108],[106.77113,11.41235],[106.77121,11.41704],[106.7711,11.42021],[106.7707,11.42643],[106.77182,11.42701],[106.77332,11.42655],[106.77578,11.42701],[106.77623,11.42648],[106.77953,11.4269],[106.78144,11.42776],[106.78275,11.4288],[106.78462,11.42955],[106.78612,11.43153],[106.78842,11.43283],[106.79181,11.43562],[106.79341,11.43819],[106.79641,11.44217],[106.79951,11.44575],[106.80203,11.44714],[106.80318,11.44846],[106.80461,11.44957],[106.80596,11.45158],[106.80635,11.455],[106.80595,11.45707],[106.80642,11.45864],[106.80754,11.46035],[106.80872,11.46114],[106.8077,11.46252],[106.80599,11.46566],[106.80611,11.46673],[106.80408,11.47023],[106.8035,11.47185],[106.80296,11.47615],[106.80257,11.47708],[106.8031,11.48126],[106.80156,11.48498],[106.80025,11.48682],[106.79817,11.48902],[106.79736,11.49103],[106.79666,11.49124],[106.79495,11.49105],[106.7946,11.49133],[106.79263,11.49139],[106.79145,11.49193],[106.79048,11.49183],[106.78835,11.4902],[106.78632,11.48924],[106.78405,11.48887],[106.78065,11.48758],[106.77929,11.48652],[106.77868,11.48529],[106.77795,11.48462],[106.77646,11.48411],[106.77426,11.48279],[106.77206,11.4827],[106.76945,11.48215],[106.7687,11.48274],[106.76816,11.48252],[106.76757,11.48086],[106.76778,11.4804],[106.76678,11.47982],[106.76507,11.48051],[106.76317,11.48034],[106.76208,11.47978],[106.75936,11.4778],[106.75776,11.47731],[106.75589,11.47732],[106.75428,11.47691],[106.75367,11.47624],[106.75326,11.47326],[106.75253,11.47195],[106.75044,11.46952],[106.74997,11.46739],[106.75065,11.46536],[106.75198,11.46351],[106.75254,11.46091],[106.75234,11.45809],[106.75262,11.45645],[106.75364,11.45532],[106.75549,11.45442],[106.75617,11.45381],[106.75666,11.45256],[106.75658,11.45166],[106.75555,11.44926],[106.75406,11.44729],[106.753,11.44633],[106.74967,11.44428],[106.74737,11.44344],[106.74461,11.44291],[106.74307,11.44221],[106.74198,11.44094],[106.74145,11.43826],[106.74212,11.43528],[106.74172,11.43396],[106.74,11.43268],[106.7379,11.43202],[106.73394,11.43168],[106.73246,11.43207],[106.73086,11.43288],[106.72915,11.43328],[106.72762,11.43295],[106.7265,11.43186],[106.72563,11.42927],[106.72578,11.428],[106.72639,11.42643],[106.72634,11.42447],[106.72541,11.42319],[106.72352,11.42267],[106.72234,11.42264],[106.71996,11.42299],[106.71824,11.42254],[106.7177,11.42101],[106.71791,11.41858],[106.71869,11.41615],[106.71846,11.41429],[106.71688,11.41257],[106.71381,11.41002],[106.71154,11.40845],[106.7092,11.40604],[106.70881,11.40503],[106.70894,11.40376],[106.71003,11.40229],[106.71028,11.40115],[106.70949,11.39986],[106.70839,11.39905],[106.70463,11.39715],[106.70421,11.39652],[106.7024,11.39794],[106.70046,11.39846],[106.70039,11.39926],[106.69939,11.40017],[106.69779,11.40226],[106.69761,11.40307],[106.69412,11.40205],[106.69295,11.40189],[106.69287,11.39945],[106.68952,11.39766],[106.6864,11.39553],[106.68586,11.39675],[106.68395,11.39856],[106.68041,11.39771],[106.6799,11.39836],[106.67743,11.39798],[106.67583,11.4018],[106.67342,11.40126],[106.6792,11.38494],[106.67719,11.38306],[106.67575,11.38234],[106.6766,11.38109],[106.67741,11.38102],[106.67857,11.37713],[106.67843,11.37614],[106.67892,11.37549],[106.67795,11.37427],[106.67748,11.37205],[106.67786,11.3703],[106.67749,11.36832],[106.67765,11.36735],[106.67684,11.36475],[106.67743,11.36405],[106.67712,11.36289],[106.67603,11.36201],[106.6757,11.35922],[106.67489,11.35896],[106.67569,11.35806],[106.67498,11.35788],[106.67383,11.3566],[106.67416,11.35605],[106.67388,11.35451],[106.67206,11.35437],[106.67138,11.35376],[106.67003,11.35446],[106.66907,11.35403],[106.66692,11.35488],[106.66657,11.35416],[106.66512,11.35421],[106.66444,11.35492],[106.66071,11.35563],[106.65977,11.35613],[106.65891,11.35604],[106.65797,11.3571],[106.65682,11.35748],[106.6556,11.35689],[106.65417,11.35827],[106.65379,11.35898],[106.65269,11.35873],[106.65161,11.35995],[106.65045,11.35937],[106.64879,11.35982],[106.64738,11.35897],[106.6452,11.35946],[106.64371,11.36017],[106.64241,11.35965],[106.64018,11.35977],[106.63858,11.35955],[106.63706,11.35987],[106.63589,11.35925],[106.63463,11.35959],[106.63363,11.35891],[106.63272,11.35889],[106.63103,11.35966],[106.62948,11.35934],[106.62804,11.35985],[106.62595,11.35992],[106.62365,11.36117],[106.62198,11.36244],[106.61917,11.36212],[106.61746,11.36255],[106.61612,11.36326],[106.61349,11.37581],[106.61323,11.37752],[106.61304,11.38122],[106.61324,11.38747],[106.61143,11.38737],[106.59963,11.38647],[106.59751,11.38546],[106.59347,11.38218],[106.59205,11.38073],[106.5905,11.38137],[106.5883,11.38167],[106.58703,11.38134],[106.58488,11.38002],[106.58302,11.37984],[106.58091,11.38003],[106.57941,11.37923],[106.57774,11.37911],[106.57615,11.37861],[106.57522,11.37762],[106.57331,11.37671],[106.57194,11.3756],[106.57033,11.37357],[106.56856,11.37301],[106.56825,11.37255],[106.56646,11.37161],[106.56591,11.37091],[106.56498,11.37121],[106.56321,11.37081],[106.56294,11.37001],[106.55894,11.37107],[106.55757,11.37092],[106.55554,11.37161],[106.5543,11.37299],[106.55274,11.37311],[106.55241,11.37383],[106.55009,11.37648],[106.55016,11.37735],[106.54901,11.38008],[106.54807,11.38098],[106.54681,11.3816],[106.54677,11.38327],[106.54501,11.38371],[106.54485,11.38445],[106.54379,11.3852],[106.54272,11.385],[106.54158,11.38656],[106.53928,11.38773],[106.53888,11.38753],[106.53954,11.38891],[106.54121,11.38958],[106.54142,11.39053],[106.54255,11.39123],[106.54451,11.39332],[106.54443,11.39491],[106.54537,11.39558],[106.54593,11.39698],[106.54564,11.39846],[106.546,11.39859],[106.54597,11.40119],[106.54745,11.40241],[106.54764,11.40636],[106.54801,11.40691],[106.54737,11.40925],[106.54788,11.40981],[106.54787,11.41194],[106.54745,11.41237],[106.54693,11.41548],[106.54457,11.41817],[106.54484,11.4192],[106.54444,11.42021],[106.5421,11.4228],[106.54198,11.42349],[106.5411,11.42392],[106.54115,11.42529],[106.5417,11.42679],[106.54306,11.4268],[106.54573,11.43197],[106.54602,11.43359],[106.54767,11.43534],[106.55,11.43665],[106.55103,11.43763],[106.5531,11.43831],[106.55337,11.43913],[106.55585,11.44012],[106.55726,11.4396],[106.55888,11.43951],[106.55956,11.44095],[106.5635,11.4436],[106.56542,11.44521],[106.56539,11.44591],[106.56799,11.44946],[106.5694,11.45004],[106.57071,11.45134],[106.57085,11.45194],[106.5724,11.45362],[106.573,11.45515],[106.57317,11.45644],[106.57122,11.45934],[106.56885,11.46201],[106.56878,11.46262],[106.56747,11.46443],[106.56027,11.47192],[106.5564,11.485],[106.55649,11.48401],[106.55564,11.48225],[106.55513,11.48221],[106.55449,11.48108],[106.55492,11.48024],[106.5542,11.47821],[106.55262,11.47795],[106.55137,11.47676],[106.55138,11.47626],[106.55009,11.47425],[106.54976,11.47256],[106.54815,11.47078],[106.54711,11.4704],[106.54572,11.46833],[106.54366,11.46811],[106.54348,11.46743],[106.54227,11.46758],[106.5414,11.46814],[106.54014,11.46756],[106.5395,11.46843],[106.53796,11.4693],[106.5374,11.4704],[106.53472,11.47164],[106.53286,11.47307],[106.52941,11.47491],[106.52878,11.47585],[106.5274,11.47708],[106.52646,11.47865],[106.52419,11.4803],[106.52243,11.48056],[106.52144,11.48191],[106.51951,11.48149],[106.51862,11.4824],[106.51824,11.48165],[106.51689,11.48146],[106.51613,11.48245],[106.51423,11.48239],[106.51342,11.48358],[106.51197,11.48438],[106.5115,11.48545],[106.50979,11.48624],[106.50974,11.4869],[106.5086,11.48816],[106.50706,11.48845],[106.50606,11.48784],[106.50504,11.48887],[106.50306,11.48931],[106.50186,11.49167],[106.50066,11.49222],[106.49855,11.49417],[106.49856,11.49461],[106.49691,11.49602],[106.49575,11.49639],[106.49497,11.49603],[106.49297,11.4976],[106.4917,11.49815],[106.49017,11.49774],[106.48961,11.49934],[106.48896,11.49959],[106.4867,11.49848],[106.48635,11.49802],[106.48456,11.49793],[106.48328,11.49886],[106.48209,11.49927],[106.48085,11.4983],[106.48087,11.49753],[106.48019,11.49715],[106.47914,11.49746],[106.47694,11.49568],[106.47539,11.49603],[106.4748,11.49541],[106.47316,11.49634],[106.47236,11.49649],[106.46983,11.49628],[106.46886,11.49674],[106.46692,11.49835],[106.46528,11.49882],[106.45688,11.49896],[106.45149,11.49943],[106.44805,11.49941],[106.44396,11.49888],[106.44227,11.49913],[106.43806,11.5012],[106.43691,11.5015],[106.43449,11.50143],[106.43263,11.50063],[106.43145,11.49969],[106.42914,11.49737],[106.42679,11.49618],[106.42539,11.49584],[106.42338,11.49573],[106.42288,11.49239],[106.42184,11.48925],[106.42011,11.4857],[106.41697,11.48019],[106.41345,11.47499],[106.40954,11.47006],[106.40713,11.46784],[106.40297,11.46462],[106.40012,11.46278],[106.39592,11.46052],[106.39152,11.45866],[106.38583,11.45696],[106.381,11.45504],[106.3775,11.45335],[106.37214,11.45021],[106.37027,11.44831],[106.36798,11.44506],[106.36656,11.44199],[106.3659,11.43872],[106.36581,11.43246],[106.36538,11.42691],[106.36495,11.42499],[106.36423,11.42345],[106.36335,11.42245],[106.36174,11.42135],[106.361,11.42039],[106.36018,11.41776],[106.35987,11.41586],[106.35985,11.41238],[106.36085,11.40305],[106.36089,11.40089],[106.36031,11.39768],[106.35928,11.39601],[106.35788,11.39491],[106.35604,11.39408],[106.35412,11.39271],[106.35308,11.39126],[106.3522,11.38912],[106.35182,11.38647],[106.35179,11.38431],[106.35201,11.38115],[106.35189,11.37991],[106.35117,11.37863],[106.34887,11.37763],[106.34742,11.37614],[106.34685,11.37362],[106.34649,11.36901],[106.34577,11.36611],[106.3445,11.36438],[106.34217,11.36361],[106.33724,11.36387],[106.3363,11.36354],[106.3356,11.36224],[106.33545,11.35992],[106.33451,11.35605],[106.333,11.35283],[106.33075,11.34944],[106.32808,11.34628],[106.32737,11.34428],[106.32776,11.34175],[106.32908,11.34003],[106.3304,11.33924],[106.33372,11.33787],[106.33582,11.33641],[106.33806,11.33401],[106.33903,11.33247],[106.34021,11.32944],[106.34092,11.3286],[106.34314,11.3276],[106.34437,11.32609],[106.34508,11.32473],[106.34508,11.32235],[106.34319,11.31703],[106.34208,11.31451],[106.34163,11.31214],[106.34097,11.31086],[106.33902,11.30598],[106.33806,11.30331],[106.33745,11.30224],[106.33585,11.30081],[106.3353,11.2995],[106.33529,11.29593],[106.33572,11.29478],[106.33792,11.29245],[106.33879,11.29195],[106.33996,11.29183],[106.34013,11.29228],[106.33923,11.29418],[106.33804,11.29575],[106.33806,11.29657],[106.33998,11.29817],[106.34252,11.29689],[106.34399,11.29539],[106.34492,11.29383],[106.34458,11.29348],[106.34197,11.29408],[106.34116,11.2939],[106.34086,11.29306],[106.34138,11.29069],[106.34135,11.28918],[106.34079,11.28718],[106.34097,11.28544],[106.34257,11.28359],[106.3435,11.28285],[106.34481,11.28245],[106.34532,11.28304],[106.34415,11.28501],[106.34421,11.28587],[106.34493,11.2874],[106.34635,11.28904],[106.34738,11.28966],[106.35144,11.28864],[106.35255,11.2874],[106.35257,11.28572],[106.35443,11.28804],[106.35524,11.28791],[106.35543,11.28601],[106.35633,11.28498],[106.3561,11.28401],[106.35337,11.28317],[106.35344,11.2812],[106.35387,11.28049],[106.35517,11.28015],[106.3552,11.27939],[106.35399,11.27689],[106.35374,11.27578],[106.35415,11.27407],[106.35409,11.27227],[106.35315,11.27013],[106.35293,11.26668],[106.35197,11.26482],[106.35049,11.26345],[106.35053,11.26271],[106.3516,11.26256],[106.35383,11.2618],[106.35609,11.26157],[106.35858,11.26088],[106.35968,11.26096],[106.36083,11.26173],[106.36216,11.26307],[106.3639,11.26192],[106.36443,11.26025],[106.36402,11.25949],[106.36163,11.25918],[106.36075,11.25815],[106.36082,11.25588],[106.35717,11.25548],[106.35575,11.25472],[106.35455,11.25351],[106.35243,11.25198],[106.35174,11.25114],[106.3511,11.24946],[106.35129,11.24854],[106.35402,11.24806],[106.35541,11.24717],[106.35639,11.24566],[106.3572,11.24309],[106.35811,11.24081],[106.3589,11.23952],[106.36023,11.23858],[106.36165,11.2381],[106.36319,11.23842],[106.36471,11.23984],[106.36529,11.24107],[106.36615,11.24202],[106.36765,11.24286],[106.3704,11.24476],[106.37129,11.24466],[106.37311,11.2409],[106.37497,11.23814],[106.3771,11.23636],[106.37759,11.23561],[106.37823,11.23322],[106.37832,11.22964],[106.37904,11.2285],[106.38017,11.22847],[106.38166,11.22932],[106.38261,11.22921],[106.38354,11.22837],[106.38374,11.22647],[106.38209,11.22423],[106.38132,11.22202],[106.37987,11.21876],[106.3803,11.21726],[106.38195,11.21665],[106.38457,11.21461],[106.38879,11.213],[106.38919,11.21181],[106.38758,11.20916],[106.38699,11.20726],[106.38684,11.20369],[106.38663,11.20271],[106.38556,11.20136],[106.38448,11.20047],[106.38402,11.19727],[106.38415,11.19509],[106.38379,11.1934],[106.38417,11.19238],[106.38601,11.19077],[106.38702,11.18937],[106.38772,11.18695],[106.38783,11.18581],[106.38945,11.18514],[106.39233,11.18462],[106.39498,11.18442],[106.39638,11.18362],[106.39761,11.18215],[106.39877,11.18142],[106.40036,11.18155],[106.40282,11.18238],[106.40432,11.18332],[106.40498,11.18457],[106.40447,11.18719],[106.40456,11.18792],[106.40536,11.18804],[106.40681,11.18506],[106.40781,11.18398],[106.40866,11.18373],[106.41024,11.18386],[106.41067,11.18296],[106.40973,11.18164],[106.40981,11.17917],[106.4103,11.17829],[106.41028,11.17576],[106.40986,11.17389],[106.41043,11.17235],[106.41113,11.17221],[106.41191,11.17322],[106.41308,11.174],[106.4156,11.17437],[106.41679,11.17426],[106.41842,11.1729],[106.42098,11.17222],[106.42282,11.17112],[106.42459,11.17054],[106.42634,11.17058],[106.4279,11.17201],[106.42886,11.17417],[106.42953,11.17473],[106.43069,11.17447],[106.43166,11.17358],[106.43269,11.17144],[106.43283,11.16666],[106.43343,11.16469],[106.43533,11.16251],[106.43633,11.16104],[106.4369,11.15907],[106.43697,11.15708],[106.43658,11.15553],[106.43412,11.15292],[106.43302,11.15101],[106.43197,11.15022],[106.43045,11.15001],[106.42969,11.14938],[106.42979,11.14882],[106.43182,11.14643],[106.4342,11.14411],[106.43568,11.14169],[106.4365,11.14081],[106.44,11.13881],[106.44249,11.13678],[106.44375,11.13618],[106.44776,11.13603],[106.44782,11.13211],[106.44849,11.13073],[106.44707,11.12969],[106.44608,11.12764],[106.44552,11.12751],[106.44478,11.12627],[106.44484,11.12527],[106.44316,11.11951],[106.44255,11.11595],[106.44147,11.11469],[106.44057,11.1148],[106.43855,11.11266],[106.43766,11.11212],[106.43712,11.11013],[106.43739,11.10991],[106.43589,11.10615],[106.43388,11.10024],[106.4331,11.10034],[106.4323,11.09833],[106.4316,11.09834],[106.43085,11.09371],[106.43089,11.09209],[106.43034,11.09193],[106.42689,11.09188],[106.42601,11.09165],[106.4263,11.08931],[106.42655,11.08477],[106.4272,11.08323],[106.42656,11.08305],[106.42656,11.08179],[106.42591,11.08135],[106.42605,11.07801],[106.42641,11.07808],[106.42667,11.07636],[106.42742,11.07506],[106.42739,11.07401],[106.42632,11.0711],[106.42567,11.07017],[106.42531,11.06852],[106.42578,11.06662],[106.4228,11.06614],[106.42249,11.06556],[106.42131,11.06491],[106.42022,11.06338],[106.42163,11.06192],[106.42074,11.06113],[106.42309,11.05819],[106.42101,11.05743],[106.42127,11.05559],[106.42034,11.05196],[106.4226,11.04924],[106.42478,11.04738],[106.42265,11.04663],[106.42339,11.04545],[106.42229,11.04461],[106.42291,11.04367],[106.42281,11.04281],[106.42168,11.04201],[106.4222,11.04153],[106.42106,11.03975],[106.42136,11.03954],[106.42016,11.03692],[106.42014,11.03619],[106.41875,11.0361],[106.41846,11.03548],[106.41721,11.03503],[106.41616,11.03404],[106.41497,11.03366],[106.41327,11.03195],[106.41333,11.03148],[106.41202,11.03026],[106.41149,11.02939],[106.41057,11.02586],[106.4094,11.02391],[106.40968,11.02348],[106.409,11.02263],[106.4089,11.02078],[106.40908,11.01921],[106.40956,11.01797],[106.40896,11.01656],[106.40928,11.01466],[106.41006,11.0137],[106.41104,11.01336],[106.4129,11.0089],[106.41054,11.00746],[106.40635,11.00627],[106.40624,11.00535],[106.4056,11.00528],[106.40532,11.00376],[106.40441,11.00376],[106.39285,11.00036],[106.39056,10.99975],[106.38616,10.99917],[106.38503,10.99932],[106.38065,10.9984],[106.37827,11.00025],[106.3773,11.00039],[106.37697,10.99993],[106.36697,10.99872],[106.36351,10.99723],[106.36262,10.99718],[106.36236,10.99646],[106.35992,10.9953],[106.36025,10.99467],[106.35783,10.99306],[106.35819,10.99235],[106.3567,10.9916],[106.36795,10.97652],[106.37121,10.97226],[106.37269,10.97014],[106.37341,10.96962],[106.37762,10.97001],[106.39242,10.9716],[106.3976,10.97209],[106.41093,10.97368],[106.4119,10.97354],[106.42227,10.96581],[106.426,10.96294],[106.4437,10.94934],[106.45289,10.94236],[106.45404,10.94164],[106.48739,10.92496],[106.49562,10.92084],[106.50368,10.91689],[106.53154,10.90267],[106.53255,10.90145],[106.53287,10.8999],[106.53205,10.89723],[106.5275,10.88006],[106.52645,10.87664],[106.52591,10.87364],[106.52543,10.87214],[106.52007,10.85222],[106.51581,10.83487],[106.51115,10.81694],[106.50949,10.80895],[106.50805,10.80336],[106.50629,10.79511],[106.50573,10.79372],[106.50456,10.78892],[106.50143,10.78623],[106.4928,10.77911],[106.4885,10.77549],[106.48286,10.77125],[106.4795,10.76857],[106.46356,10.75651],[106.46701,10.75218],[106.46982,10.74845],[106.47223,10.74553],[106.47351,10.74649],[106.47662,10.74262],[106.48211,10.73544],[106.48243,10.73569],[106.48716,10.72982],[106.48899,10.73126],[106.49117,10.72979],[106.49543,10.72744],[106.49583,10.72772],[106.49963,10.72499],[106.50169,10.72654],[106.50937,10.71705],[106.52023,10.7237],[106.52383,10.72097],[106.52918,10.71801],[106.53026,10.71728],[106.52844,10.71498],[106.5284,10.71424],[106.52724,10.70913],[106.52896,10.70231],[106.53011,10.69887],[106.53218,10.69353],[106.53386,10.68817],[106.535,10.68713],[106.53566,10.68555],[106.5381,10.68615],[106.53957,10.68606],[106.54764,10.68717],[106.54831,10.6862],[106.54916,10.68644],[106.55047,10.68553],[106.55148,10.68243],[106.55141,10.68072],[106.55204,10.67827],[106.5529,10.67707],[106.55303,10.67569],[106.55362,10.67541],[106.55331,10.67432],[106.55317,10.67188],[106.55206,10.67059],[106.55292,10.66901],[106.55358,10.66859],[106.55327,10.66584],[106.55152,10.66414],[106.55128,10.66106],[106.55049,10.65904],[106.54927,10.65966],[106.54897,10.65743],[106.55173,10.65734],[106.55272,10.65749],[106.55592,10.65697],[106.55601,10.6554],[106.5553,10.65468],[106.55521,10.65258],[106.55567,10.65093],[106.55734,10.65039],[106.55793,10.6486],[106.55853,10.64864],[106.55918,10.64997],[106.55878,10.65061],[106.55903,10.65188],[106.55977,10.65163],[106.56307,10.65149],[106.56313,10.65221],[106.5653,10.6523],[106.56505,10.65303],[106.56588,10.65377],[106.56627,10.65643],[106.56852,10.65605],[106.56862,10.65658],[106.56984,10.65627],[106.57286,10.65437],[106.57349,10.65413],[106.57309,10.65193],[106.57336,10.64986],[106.57512,10.64987],[106.57546,10.64911],[106.57667,10.64935],[106.57696,10.64889],[106.57862,10.64919],[106.57937,10.65038],[106.57955,10.6519],[106.57801,10.65189],[106.57791,10.65324],[106.57939,10.65493],[106.57983,10.6561],[106.5807,10.6555],[106.5832,10.65537],[106.58413,10.65366],[106.58686,10.65321],[106.58698,10.65249],[106.59053,10.65278],[106.59091,10.6511],[106.59149,10.65117],[106.59166,10.65011],[106.59498,10.6506],[106.59593,10.65039],[106.59555,10.65297],[106.59523,10.6535],[106.59751,10.65338],[106.60035,10.65189],[106.60065,10.65069],[106.60175,10.65129],[106.60192,10.65233],[106.60285,10.65344],[106.60324,10.65476],[106.60473,10.65798],[106.60538,10.6587],[106.60552,10.65827],[106.60925,10.65748],[106.61051,10.6566],[106.61083,10.6569],[106.61232,10.65581],[106.61345,10.65436],[106.6146,10.65373],[106.61563,10.65411],[106.61607,10.6533],[106.61674,10.65334],[106.61679,10.6522],[106.61772,10.65196],[106.61734,10.65017],[106.61898,10.64969],[106.61896,10.64901],[106.62114,10.64872],[106.62456,10.64746],[106.62396,10.64646],[106.62433,10.64446],[106.62336,10.64408],[106.62177,10.6441],[106.62154,10.64327],[106.62251,10.64259],[106.62219,10.64151],[106.62121,10.64093],[106.62279,10.64041],[106.62406,10.63945],[106.62449,10.63986],[106.62581,10.63972],[106.62718,10.6424],[106.62815,10.64181],[106.62948,10.64203],[106.6299,10.6403],[106.62968,10.63934],[106.63036,10.63849],[106.63116,10.63674],[106.62951,10.63631],[106.62934,10.63525],[106.62979,10.63426],[106.62963,10.63165],[106.63077,10.6302],[106.62968,10.62894],[106.62956,10.62759],[106.63014,10.62643],[106.63163,10.62828],[106.63288,10.62799],[106.63494,10.62532],[106.63532,10.62612],[106.63789,10.62657],[106.63889,10.62747],[106.64103,10.62662],[106.64371,10.62953],[106.6462,10.63424],[106.64684,10.63415],[106.64848,10.63271],[106.65111,10.63272],[106.65284,10.6323],[106.65334,10.63285],[106.65311,10.63435],[106.65329,10.63655],[106.65294,10.6379],[106.65395,10.63944],[106.6565,10.63881],[106.65685,10.63991],[106.65629,10.64205],[106.65675,10.64321],[106.6578,10.64328],[106.66072,10.64199],[106.66002,10.64098],[106.66007,10.63986],[106.66184,10.6399],[106.6628,10.63929],[106.66344,10.64005],[106.6651,10.63892],[106.66573,10.63956],[106.66604,10.63843],[106.66646,10.63879],[106.66662,10.64065],[106.66834,10.63919],[106.6693,10.63915],[106.67033,10.63982],[106.67169,10.64141],[106.67345,10.64197],[106.67353,10.64351],[106.67441,10.64444],[106.67744,10.64507],[106.67874,10.64552],[106.68082,10.64735],[106.68413,10.64965],[106.68532,10.65088],[106.68594,10.65219],[106.68606,10.65376],[106.6857,10.65666],[106.68697,10.6561],[106.68846,10.65343],[106.69019,10.65141],[106.69082,10.64895],[106.69217,10.64851],[106.69627,10.64986],[106.69768,10.65208],[106.69874,10.65295],[106.70045,10.65385],[106.70169,10.65368],[106.70398,10.65281],[106.70537,10.651],[106.70687,10.65018],[106.70802,10.64991],[106.70939,10.65003],[106.71119,10.65055],[106.71233,10.65028],[106.71575,10.64816],[106.71741,10.64662],[106.71869,10.64574],[106.71995,10.64558],[106.72093,10.64592],[106.7221,10.6458],[106.72293,10.6452],[106.7237,10.64128],[106.72539,10.63914],[106.72571,10.63837],[106.72685,10.63757],[106.72977,10.63644],[106.73073,10.63537],[106.73121,10.6341],[106.73133,10.63272],[106.73253,10.63066],[106.73324,10.62888],[106.73222,10.62788],[106.73144,10.62776],[106.73033,10.62854],[106.72928,10.62857],[106.72897,10.62798],[106.72833,10.62507],[106.72874,10.62407],[106.7314,10.6237],[106.73172,10.62258],[106.7298,10.61999],[106.72989,10.6177],[106.72891,10.61625],[106.72796,10.61683],[106.7276,10.61567],[106.72857,10.61303],[106.72927,10.61191],[106.7304,10.61244],[106.73169,10.61206],[106.7328,10.60996],[106.73109,10.60884],[106.72901,10.60939],[106.7283,10.60904],[106.72729,10.60998],[106.72659,10.61127],[106.72528,10.6113],[106.72409,10.61191],[106.72292,10.61043],[106.72223,10.60719],[106.72178,10.60677],[106.71996,10.60661],[106.71894,10.60592],[106.71912,10.60408],[106.72039,10.60163],[106.72174,10.60021],[106.72178,10.59943],[106.72037,10.59737],[106.72038,10.596],[106.72119,10.59517],[106.72287,10.59406],[106.72356,10.59311],[106.72365,10.59049],[106.72324,10.58834],[106.72417,10.5871],[106.72492,10.58559],[106.72597,10.58524],[106.72695,10.58559],[106.72683,10.5838],[106.72862,10.58013],[106.73097,10.57971],[106.73275,10.58027],[106.73344,10.58127],[106.7348,10.5823],[106.73475,10.58522],[106.73556,10.58637],[106.73684,10.5864],[106.73874,10.58527],[106.7394,10.58391],[106.73937,10.58214],[106.73867,10.58118],[106.73758,10.58063],[106.73664,10.5797],[106.73506,10.57873],[106.73556,10.57741],[106.73677,10.57708],[106.73805,10.57845],[106.74014,10.57905],[106.74176,10.57899],[106.74311,10.5783],[106.74565,10.57636],[106.74454,10.5743],[106.74259,10.56934],[106.74213,10.56697],[106.7419,10.56392],[106.74235,10.55839],[106.74343,10.55328],[106.74724,10.52802],[106.74681,10.51537],[106.74553,10.50339],[106.74523,10.49783],[106.75123,10.47532],[106.75364,10.4673],[106.75623,10.46091],[106.75836,10.45764],[106.76116,10.45379],[106.77146,10.44093],[106.79251,10.4184],[106.80923,10.3882],[106.8289,10.39749],[106.82984,10.3968],[106.83178,10.39595],[106.83202,10.39624],[106.83399,10.39598],[106.83716,10.39685],[106.83835,10.39751],[106.83847,10.39808],[106.84013,10.39855],[106.84082,10.39962],[106.8439,10.40147],[106.84632,10.40206],[106.84845,10.4033],[106.84901,10.40312],[106.84987,10.40401],[106.85045,10.40391],[106.85285,10.40562],[106.85334,10.40662],[106.8531,10.40902],[106.85403,10.41005],[106.8632,10.41001],[106.87237,10.40998],[106.87324,10.40883],[106.8736,10.40722],[106.87524,10.40339],[106.87583,10.40271],[106.87625,10.40113],[106.8775,10.3981],[106.87794,10.39657],[106.87903,10.39644],[106.87957,10.39588],[106.87891,10.39404],[106.87969,10.39164],[106.88103,10.38996],[106.88149,10.38853],[106.88118,10.38714],[106.88,10.38462],[106.88042,10.38368],[106.88027,10.38267],[106.8793,10.38218],[106.87865,10.38095],[106.87586,10.37867],[106.8752,10.37775],[106.87765,10.3774],[106.88039,10.37634],[106.88137,10.37666],[106.88136,10.37316],[106.88635,10.36914],[106.89002,10.36666],[106.89257,10.36517],[106.89655,10.36319],[106.90067,10.36153],[106.90491,10.36019],[106.90998,10.35905],[106.91438,10.35845],[106.91957,10.35818],[106.92475,10.35838],[106.92843,10.35882],[106.9328,10.35965],[106.93709,10.36082],[106.94377,10.36368],[106.94699,10.36526],[106.9501,10.367],[106.95492,10.37002],[106.96137,10.37337],[106.96594,10.37544],[106.96749,10.37588],[106.97067,10.37614],[106.97726,10.37564],[106.97887,10.37526],[106.98231,10.37368],[106.98337,10.37294],[106.98663,10.36971],[106.9878,10.36646],[106.99093,10.36664],[106.99155,10.36633],[106.99329,10.3639],[106.99363,10.36408],[106.99032,10.36995],[106.98806,10.37339],[106.9856,10.37667],[106.98479,10.37661],[106.98408,10.37541],[106.98168,10.37669],[106.97756,10.37807],[106.97401,10.37878],[106.97253,10.37993],[106.97197,10.38091],[106.9717,10.38257],[106.97201,10.38385],[106.97382,10.3879],[106.97478,10.39075],[106.97538,10.39309],[106.97593,10.39605],[106.97621,10.39843],[106.97634,10.402],[106.9762,10.40498],[106.97593,10.40735],[106.97509,10.41161],[106.97382,10.4121],[106.97492,10.41557],[106.97306,10.41706],[106.97183,10.41758],[106.97064,10.41749],[106.96984,10.41662],[106.96804,10.41733],[106.96726,10.41583],[106.9656,10.41614],[106.96435,10.41677],[106.96371,10.41833],[106.96068,10.42111],[106.95781,10.42181],[106.95548,10.42281],[106.95514,10.42329],[106.95347,10.42341],[106.95387,10.42391],[106.95148,10.42524],[106.95156,10.4256],[106.94793,10.4261],[106.94758,10.42765],[106.94647,10.42794],[106.94491,10.43094],[106.94376,10.43089],[106.94382,10.43263],[106.94257,10.43293],[106.94199,10.43426],[106.9412,10.435],[106.94004,10.43508],[106.93815,10.43594],[106.93371,10.44355],[106.9333,10.44466],[106.93217,10.44639],[106.93165,10.44643],[106.93246,10.44833],[106.9327,10.44998],[106.93251,10.45139],[106.93189,10.45232],[106.9323,10.4535],[106.93195,10.45511],[106.93207,10.45656],[106.93298,10.45803],[106.93271,10.45843],[106.93429,10.46037],[106.93452,10.46205],[106.94053,10.46746],[106.94584,10.47223],[106.94783,10.47217],[106.94931,10.47087],[106.95146,10.47089],[106.95265,10.46925],[106.95366,10.46904],[106.95414,10.46991],[106.95499,10.4695],[106.95676,10.46941],[106.95733,10.46821],[106.95836,10.46723],[106.95961,10.46726],[106.96039,10.4668],[106.96231,10.46488],[106.96473,10.46495],[106.96585,10.46389],[106.96639,10.46408],[106.96714,10.46751],[106.9675,10.46991],[106.9673,10.47127],[106.96842,10.47241],[106.96918,10.47484],[106.96917,10.47583],[106.97122,10.47959],[106.97399,10.48248],[106.97417,10.48351],[106.97506,10.48337],[106.97703,10.48582],[106.97685,10.48727],[106.97524,10.48846],[106.97546,10.48967],[106.9748,10.49342],[106.97478,10.49607],[106.97431,10.49866],[106.97562,10.50256],[106.98052,10.50887],[106.98259,10.51075],[106.98504,10.51203],[106.98745,10.5127],[106.9915,10.51532],[106.99277,10.51518],[106.99534,10.51552],[106.99702,10.51496],[106.99712,10.51435],[106.99994,10.50683],[107.00195,10.50143],[107.00259,10.49558],[107.00406,10.49523],[107.00555,10.49541],[107.00757,10.49389],[107.00773,10.49326],[107.00707,10.49017],[107.00583,10.4893],[107.00942,10.48754],[107.01138,10.48602],[107.01344,10.48569],[107.02023,10.47998],[107.01991,10.47825],[107.01997,10.47663],[107.01966,10.47626],[107.0196,10.47447],[107.02067,10.47343],[107.02089,10.47267],[107.02384,10.47106],[107.02531,10.46931],[107.02542,10.46843],[107.02433,10.46764],[107.02476,10.46747],[107.02475,10.46626],[107.02584,10.46615],[107.02621,10.46702],[107.02638,10.46902],[107.02529,10.46964],[107.02614,10.47129],[107.02635,10.47244],[107.02616,10.47524],[107.02978,10.47526],[107.03095,10.47613],[107.03449,10.47654],[107.03601,10.47696],[107.03651,10.47567],[107.03864,10.47494],[107.03964,10.4743],[107.04074,10.47067],[107.04229,10.46564],[107.04442,10.4638],[107.0461,10.46202],[107.04676,10.46067],[107.04769,10.4597],[107.04808,10.45771],[107.04863,10.45644],[107.05072,10.4549],[107.05176,10.45268],[107.05117,10.45185],[107.05059,10.45219],[107.04966,10.4513],[107.05022,10.44998],[107.05366,10.44767],[107.05407,10.44806],[107.0597,10.4445],[107.06319,10.44305],[107.06427,10.44153],[107.0684,10.43875],[107.06881,10.43799],[107.07145,10.4354],[107.07218,10.4344],[107.07364,10.43348],[107.07521,10.43283],[107.07922,10.43295],[107.08172,10.43211],[107.08268,10.43118],[107.08366,10.43143],[107.08458,10.43237],[107.08555,10.43395],[107.08545,10.43517],[107.08653,10.43611],[107.0887,10.43544],[107.08868,10.43496],[107.08966,10.43385],[107.09035,10.43362],[107.09314,10.43569],[107.09418,10.43509],[107.09468,10.43417],[107.09631,10.43406],[107.09868,10.43471],[107.10042,10.43568],[107.10103,10.43534],[107.10215,10.43583],[107.11361,10.43631],[107.11392,10.43466],[107.11574,10.4297],[107.1154,10.42883],[107.11595,10.42596],[107.11703,10.4243],[107.11764,10.42157],[107.11714,10.41859],[107.11773,10.41728],[107.11877,10.41652],[107.11805,10.41377],[107.11745,10.41147],[107.11578,10.41084],[107.11478,10.41076],[107.11156,10.40947],[107.10868,10.4085],[107.10526,10.40412],[107.10488,10.40206],[107.10429,10.40031],[107.10476,10.39976],[107.10421,10.39621],[107.10261,10.39401],[107.10122,10.39296],[107.0993,10.39241],[107.09439,10.39022],[107.09371,10.39022],[107.09245,10.38786],[107.08066,10.39202],[107.08022,10.39058],[107.07901,10.39057],[107.07884,10.39193],[107.07764,10.39248],[107.07684,10.39198],[107.07554,10.38953],[107.07419,10.38996],[107.0723,10.38638],[107.07765,10.38449],[107.07804,10.38369],[107.07706,10.38308],[107.07656,10.38376],[107.07436,10.38262],[107.07272,10.38311],[107.07219,10.38245],[107.07386,10.38137],[107.07408,10.38065],[107.07306,10.38022],[107.07072,10.38008],[107.06924,10.3802],[107.06787,10.38122],[107.06634,10.38375],[107.0648,10.38486],[107.06345,10.38682],[107.06225,10.38736],[107.06233,10.3868],[107.0612,10.38728],[107.05921,10.387],[107.05837,10.38658],[107.05726,10.38489],[107.05605,10.38141],[107.05543,10.38125],[107.05484,10.37785],[107.05535,10.37772],[107.05561,10.37606],[107.05543,10.37403],[107.05837,10.37088],[107.06112,10.3691],[107.0626,10.36739],[107.06247,10.36586],[107.06148,10.36363],[107.06112,10.36212],[107.06006,10.36053],[107.05997,10.35708],[107.06094,10.35534],[107.06229,10.35385],[107.06452,10.35217],[107.0654,10.35185],[107.06596,10.35039],[107.06667,10.35067],[107.06858,10.34956],[107.07001,10.34929],[107.07183,10.34796],[107.07283,10.34679],[107.07368,10.34495],[107.07403,10.34343],[107.074,10.3417],[107.0709,10.33901],[107.07157,10.3387],[107.0713,10.33631],[107.07155,10.33466],[107.07219,10.3331],[107.073,10.33229],[107.07377,10.33082],[107.07653,10.32995],[107.07677,10.32938],[107.07776,10.32908],[107.08063,10.32706],[107.08135,10.32537],[107.08213,10.32503],[107.08252,10.32395],[107.08316,10.32359],[107.08321,10.32081],[107.08376,10.3203],[107.08419,10.32182],[107.08647,10.32332],[107.08835,10.32725],[107.08831,10.32798],[107.09057,10.33354],[107.09158,10.33564],[107.09652,10.34337],[107.09945,10.34741],[107.10107,10.34934],[107.10568,10.3547],[107.11057,10.36],[107.11312,10.36236],[107.1192,10.36717],[107.12286,10.36989],[107.13178,10.37589],[107.1377,10.37947],[107.14085,10.38122],[107.14658,10.3842],[107.14942,10.38548],[107.15362,10.38695],[107.15538,10.38731],[107.1568,10.38804],[107.15869,10.39057],[107.15936,10.3934],[107.16051,10.39477],[107.16294,10.39723],[107.16462,10.39847],[107.16494,10.39913],[107.17127,10.39994],[107.17686,10.40087],[107.17859,10.39991],[107.18203,10.40048],[107.18733,10.40199],[107.19043,10.40296],[107.1974,10.40483],[107.20084,10.40565],[107.20506,10.406],[107.20779,10.40603],[107.21238,10.40544],[107.21248,10.40374],[107.21588,10.40309],[107.21755,10.40243],[107.22005,10.40087],[107.22161,10.39881],[107.22325,10.39697],[107.22458,10.39602],[107.22512,10.39502],[107.22698,10.39345],[107.22863,10.39165],[107.22924,10.39138],[107.23001,10.38975],[107.23115,10.38883],[107.23166,10.38756],[107.23251,10.38706],[107.2335,10.38589],[107.23488,10.38482],[107.23633,10.38292],[107.23832,10.38092],[107.23968,10.37863],[107.24128,10.37773],[107.2423,10.37765],[107.24377,10.37829],[107.24446,10.37926],[107.24606,10.38031],[107.24766,10.38071],[107.24986,10.3803],[107.25088,10.38064],[107.25238,10.38054],[107.25379,10.37947],[107.25458,10.37952],[107.25717,10.38038],[107.25794,10.38162],[107.2593,10.38244],[107.26006,10.38409],[107.2622,10.38807],[107.26621,10.39385],[107.26756,10.39539],[107.269,10.39542],[107.27064,10.39664],[107.27264,10.39845],[107.27345,10.4],[107.27515,10.40248],[107.27731,10.40437],[107.27756,10.40422],[107.2789,10.40635],[107.28069,10.40879],[107.28579,10.41487],[107.28773,10.4173],[107.2906,10.42017],[107.29314,10.42251],[107.29587,10.42542],[107.29875,10.42796],[107.30301,10.43131],[107.30561,10.43358],[107.3075,10.43566],[107.30825,10.43609],[107.31228,10.43932],[107.31287,10.43958],[107.3145,10.44119],[107.31578,10.44187],[107.31839,10.44413],[107.32261,10.44714],[107.32479,10.44824],[107.3271,10.44904],[107.32941,10.44869],[107.33119,10.44522],[107.33143,10.44535],[107.32949,10.44907],[107.33376,10.44963],[107.33332,10.4455],[107.33371,10.44723],[107.33469,10.44763],[107.33501,10.44845],[107.33623,10.44989],[107.33707,10.44982],[107.33855,10.45188],[107.34094,10.45368],[107.34355,10.4546],[107.34511,10.45556],[107.34672,10.45613],[107.34864,10.45724],[107.35407,10.46078],[107.35371,10.46019],[107.35629,10.46183],[107.3582,10.46371],[107.36663,10.467],[107.36931,10.46754],[107.37572,10.46828],[107.3777,10.46832],[107.385,10.46881],[107.39239,10.46827],[107.39416,10.468],[107.39605,10.46812],[107.40274,10.46789],[107.41005,10.46677],[107.41341,10.46659],[107.41696,10.46659],[107.41885,10.46675],[107.42161,10.46752],[107.42247,10.46744],[107.42488,10.46825],[107.42963,10.46914],[107.4316,10.46971],[107.43504,10.46971],[107.43856,10.46918],[107.44213,10.46786],[107.44529,10.46928],[107.44699,10.47131],[107.44748,10.47225],[107.45078,10.4764],[107.45449,10.48197],[107.45619,10.48389],[107.45759,10.48601],[107.46355,10.49241],[107.46766,10.49591],[107.47058,10.49783],[107.4734,10.49881],[107.47698,10.49903],[107.47878,10.49895],[107.48089,10.49815],[107.48192,10.49852],[107.48568,10.49739],[107.48827,10.49745],[107.49379,10.49834],[107.4981,10.4996],[107.4992,10.49977],[107.5016,10.49916],[107.50433,10.50036],[107.50581,10.50082],[107.50743,10.50086],[107.50904,10.50053],[107.51111,10.50121],[107.51274,10.50113],[107.51512,10.50323],[107.51572,10.50333],[107.53211,10.52742],[107.53674,10.5308],[107.5415,10.53872],[107.54293,10.54018],[107.54473,10.54116],[107.5464,10.53966],[107.54845,10.54019],[107.54816,10.54266],[107.54919,10.54429],[107.55036,10.54745],[107.55327,10.55254],[107.55296,10.55141],[107.55393,10.5527],[107.55415,10.55356],[107.55512,10.55508],[107.55621,10.55532],[107.55676,10.55683],[107.55743,10.55713],[107.55976,10.5603],[107.55948,10.55938],[107.56044,10.56005],[107.56059,10.56084],[107.56125,10.561],[107.56222,10.56235],[107.56355,10.56256],[107.56725,10.56571],[107.56839,10.56551],[107.56869,10.56606],[107.5704,10.56741],[107.56881,10.57812],[107.56959,10.57958],[107.5692,10.58142],[107.5683,10.58222],[107.56785,10.58543],[107.5703,10.59272],[107.57195,10.60019],[107.57007,10.60229],[107.56803,10.60291],[107.568,10.6038],[107.56587,10.60553],[107.56438,10.60838],[107.56498,10.61393],[107.56346,10.61517],[107.56725,10.61607],[107.56807,10.6172],[107.56812,10.6192],[107.56748,10.61951],[107.56691,10.62146],[107.56637,10.62154],[107.56653,10.62281],[107.56503,10.62334],[107.56453,10.62493],[107.56332,10.62587],[107.56386,10.62641],[107.56225,10.62809],[107.56286,10.62883],[107.5631,10.63043],[107.56217,10.63233],[107.56277,10.63271],[107.56219,10.63363],[107.56157,10.63377],[107.56102,10.6349],[107.5603,10.63542],[107.55953,10.63758],[107.55696,10.63918],[107.55709,10.64091],[107.55663,10.6416],[107.55555,10.64182],[107.55531,10.64397],[107.55618,10.64422],[107.55626,10.64516],[107.55525,10.64514],[107.55553,10.64623],[107.55388,10.64669],[107.55429,10.64763],[107.55364,10.64766],[107.55321,10.64886],[107.55225,10.64898],[107.55128,10.64998],[107.55056,10.65178],[107.55119,10.65385],[107.55005,10.65493],[107.54987,10.65644],[107.54904,10.65715],[107.54969,10.65776],[107.54892,10.65813],[107.54924,10.65945],[107.54796,10.6603],[107.54889,10.66153],[107.5487,10.66253],[107.5481,10.66252],[107.54719,10.6635],[107.54583,10.66291],[107.54529,10.66415],[107.54643,10.66434],[107.54534,10.66473],[107.54508,10.66624],[107.54412,10.66702],[107.54405,10.66947],[107.5449,10.66993],[107.54356,10.6712],[107.54484,10.67148],[107.5444,10.67224],[107.54285,10.67355],[107.54124,10.67358],[107.54115,10.6746],[107.5404,10.67516],[107.53963,10.67453],[107.53975,10.67568],[107.53891,10.67615],[107.53945,10.67729],[107.53882,10.67756],[107.53815,10.67865],[107.53848,10.67965],[107.53878,10.67888],[107.54041,10.68006],[107.53982,10.68079],[107.5406,10.68143],[107.54066,10.68321],[107.5421,10.68404],[107.54207,10.68515],[107.54262,10.68534],[107.54178,10.68632],[107.54176,10.68719],[107.54263,10.68732],[107.54209,10.68782],[107.54342,10.68799],[107.54378,10.68926],[107.54293,10.69019],[107.54434,10.69115],[107.54434,10.69191],[107.54501,10.69205],[107.54501,10.69321],[107.54591,10.69317],[107.54567,10.69388],[107.54655,10.69452],[107.54639,10.69581],[107.54504,10.69593],[107.54545,10.6965],[107.54356,10.69858],[107.54411,10.6995],[107.54325,10.69947],[107.54409,10.70097],[107.54481,10.70137],[107.54369,10.70252],[107.5442,10.70387],[107.54338,10.70416],[107.54434,10.70602],[107.5436,10.70651],[107.54324,10.70767],[107.54266,10.70798],[107.54214,10.70925],[107.54044,10.70943],[107.54071,10.71101],[107.53947,10.71093],[107.53983,10.71276],[107.53877,10.71408],[107.5387,10.71512],[107.53763,10.71526],[107.53817,10.71577],[107.53748,10.71632],[107.5364,10.71635],[107.53628,10.7175],[107.53562,10.71826],[107.53564,10.72033],[107.53501,10.72138],[107.53416,10.72188],[107.53248,10.72218],[107.53226,10.72141],[107.53111,10.7229],[107.52951,10.72328],[107.52924,10.72382],[107.52816,10.72414],[107.52747,10.72717],[107.52636,10.72819],[107.5261,10.72996],[107.52628,10.73121],[107.52545,10.73183],[107.52435,10.73119],[107.52337,10.73235],[107.5229,10.73175],[107.52216,10.7324],[107.52247,10.73358],[107.51954,10.73544],[107.51695,10.73539],[107.51679,10.73482],[107.51594,10.73515],[107.51558,10.73715],[107.51583,10.73784],[107.51531,10.73877],[107.51466,10.7389],[107.51236,10.74033],[107.51207,10.74286],[107.51157,10.74348],[107.50907,10.74476],[107.50646,10.74561],[107.50574,10.74745],[107.50593,10.74933],[107.50663,10.75031],[107.50624,10.75166],[107.50688,10.75242],[107.50704,10.75532],[107.5079,10.75637],[107.50678,10.7578],[107.50494,10.75847],[107.5045,10.75915],[107.50195,10.7611],[107.50525,10.7716],[107.50226,10.77116],[107.50112,10.77056],[107.50062,10.76981],[107.49971,10.7695],[107.49852,10.76842],[107.49574,10.76763],[107.49497,10.76822],[107.49345,10.76799],[107.49065,10.76897],[107.48684,10.76879],[107.48498,10.76855],[107.48356,10.77019],[107.48057,10.77565],[107.4788,10.77796],[107.47762,10.77912],[107.47748,10.78053],[107.47654,10.78141],[107.47683,10.7829],[107.4756,10.78401],[107.47504,10.78632],[107.47446,10.78697],[107.47503,10.78784],[107.47372,10.79136],[107.47262,10.79226],[107.47149,10.7938],[107.46531,10.79198],[107.46299,10.79187],[107.45757,10.79136],[107.45811,10.79402],[107.45767,10.79637],[107.45574,10.79903],[107.45437,10.80148],[107.45379,10.80292],[107.45315,10.80288],[107.45236,10.80374],[107.45071,10.80353],[107.44977,10.80434],[107.44859,10.80456],[107.44855,10.80392],[107.44775,10.80429],[107.4454,10.80432],[107.44564,10.80487],[107.44437,10.80432],[107.44369,10.80364],[107.44365,10.80287],[107.44219,10.80134],[107.44177,10.80163],[107.439,10.79976],[107.43818,10.80006],[107.43795,10.79908],[107.43722,10.79878],[107.43748,10.79739],[107.43622,10.79625],[107.43631,10.79501],[107.43495,10.79399],[107.43578,10.79342],[107.43552,10.79271],[107.43444,10.79317],[107.43408,10.7918],[107.4327,10.79115],[107.43277,10.79032],[107.43188,10.79053],[107.43072,10.78916],[107.4307,10.78819],[107.42962,10.78893],[107.42842,10.78733],[107.42671,10.78743],[107.42605,10.78684],[107.42599,10.78573],[107.42544,10.78538],[107.42611,10.78439],[107.42522,10.78444],[107.42518,10.78334],[107.42363,10.78222],[107.42391,10.78114],[107.42339,10.78116],[107.42347,10.78006],[107.4228,10.78004],[107.42238,10.77832],[107.42133,10.77775],[107.42143,10.7767],[107.42022,10.77603],[107.41948,10.77522],[107.41915,10.77409],[107.42005,10.77348],[107.4201,10.77213],[107.41905,10.77113],[107.41842,10.77231],[107.41691,10.77218],[107.41494,10.77333],[107.41523,10.77195],[107.41388,10.77331],[107.41353,10.77249],[107.41293,10.77376],[107.41194,10.77496],[107.41142,10.77444],[107.41024,10.77428],[107.40962,10.77469],[107.40914,10.77396],[107.40814,10.77404],[107.40742,10.77209],[107.40558,10.7703],[107.40513,10.77083],[107.40415,10.77057],[107.40457,10.76984],[107.40339,10.76941],[107.40266,10.76977],[107.40246,10.76906],[107.40089,10.76911],[107.40004,10.76813],[107.40053,10.76745],[107.39984,10.76678],[107.39984,10.76603],[107.39886,10.76579],[107.39742,10.76313],[107.39444,10.76311],[107.39394,10.76273],[107.39391,10.76146],[107.3925,10.75991],[107.39316,10.75855],[107.39279,10.75698],[107.39167,10.75555],[107.39107,10.75543],[107.38968,10.75673],[107.38893,10.75627],[107.38854,10.75482],[107.38765,10.75463],[107.38556,10.753],[107.38504,10.752],[107.38326,10.75134],[107.3829,10.75074],[107.38307,10.74767],[107.38123,10.74804],[107.38046,10.74759],[107.38039,10.74619],[107.37959,10.74455],[107.38018,10.74279],[107.37978,10.74111],[107.37876,10.74226],[107.37816,10.74172],[107.37812,10.74057],[107.37638,10.73766],[107.37481,10.7367],[107.37429,10.73566],[107.37304,10.73474],[107.37168,10.73473],[107.371,10.73435],[107.37094,10.73347],[107.37163,10.73285],[107.37165,10.73167],[107.37065,10.73137],[107.36957,10.73278],[107.36812,10.7331],[107.36653,10.73095],[107.36589,10.73049],[107.36432,10.73126],[107.36363,10.73102],[107.36373,10.72972],[107.36109,10.72821],[107.36118,10.7268],[107.36071,10.72469],[107.35894,10.7217],[107.35075,10.70859],[107.35069,10.69057],[107.35201,10.67836],[107.34896,10.6773],[107.34398,10.67643],[107.33734,10.67767],[107.3328,10.67758],[107.33176,10.67737],[107.33099,10.67621],[107.32804,10.67633],[107.32755,10.67496],[107.32524,10.67349],[107.32398,10.67317],[107.32293,10.67215],[107.32289,10.6708],[107.32195,10.67005],[107.32052,10.66982],[107.31868,10.6692],[107.31799,10.66863],[107.31706,10.66916],[107.3159,10.66927],[107.31454,10.67047],[107.31347,10.6708],[107.31324,10.6716],[107.31193,10.67236],[107.31199,10.67286],[107.31097,10.67285],[107.31046,10.67365],[107.31019,10.67558],[107.30922,10.67593],[107.30911,10.67677],[107.30818,10.67679],[107.30809,10.67739],[107.30697,10.67766],[107.30545,10.67946],[107.30436,10.68004],[107.30259,10.68175],[107.30295,10.68203],[107.30174,10.68264],[107.3014,10.68339],[107.29991,10.6836],[107.29999,10.68573],[107.29947,10.68626],[107.30474,10.68852],[107.30365,10.69113],[107.30479,10.6916],[107.30463,10.69253],[107.30715,10.69347],[107.30776,10.69408],[107.30678,10.69452],[107.3072,10.69594],[107.30691,10.69676],[107.30577,10.69809],[107.30564,10.69912],[107.30445,10.69945],[107.30339,10.70038],[107.30234,10.7008],[107.30199,10.70172],[107.30091,10.70176],[107.29972,10.70392],[107.30082,10.70476],[107.30069,10.70597],[107.30115,10.70774],[107.30451,10.71201],[107.30544,10.71286],[107.30531,10.71441],[107.30459,10.71567],[107.30412,10.71521],[107.30127,10.71776],[107.30211,10.718],[107.30117,10.71889],[107.30099,10.72066],[107.3021,10.72183],[107.30421,10.72598],[107.30375,10.7263],[107.30465,10.72745],[107.30411,10.72825],[107.30517,10.72821],[107.3053,10.729],[107.30435,10.7298],[107.30465,10.73042],[107.30291,10.73231],[107.30307,10.73509],[107.30243,10.73925],[107.30179,10.74572],[107.3034,10.74838],[107.30424,10.7493],[107.29951,10.75045],[107.3005,10.75496],[107.25744,10.75589],[107.25719,10.75598],[107.24406,10.75614],[107.24437,10.75784],[107.2443,10.75974],[107.24196,10.7592],[107.24036,10.76178],[107.24,10.76132],[107.23876,10.76161],[107.23756,10.76078],[107.23485,10.76139],[107.23364,10.76204],[107.2313,10.76409],[107.22957,10.76354],[107.22873,10.7629],[107.22864,10.76201],[107.22756,10.76169],[107.22774,10.76064],[107.22727,10.75926],[107.22595,10.75964],[107.22486,10.75828],[107.22357,10.7576],[107.22283,10.75775],[107.22173,10.7571],[107.2196,10.75717],[107.21914,10.75766],[107.21707,10.75752],[107.21578,10.75934],[107.2081,10.75952],[107.20684,10.75878],[107.20654,10.75807],[107.20688,10.77382],[107.2066,10.77448],[107.20516,10.77483],[107.20371,10.77449],[107.20261,10.77371],[107.20161,10.77362],[107.20016,10.77291],[107.19915,10.77206],[107.19801,10.77178],[107.19541,10.77183],[107.19407,10.77147],[107.19354,10.77196],[107.19021,10.77132],[107.1895,10.77196],[107.18721,10.77079],[107.18733,10.77018],[107.18492,10.76852],[107.18235,10.76773],[107.1808,10.76697],[107.18075,10.76462],[107.17993,10.7647],[107.1793,10.76336],[107.17923,10.76227],[107.17831,10.76163],[107.17716,10.76178],[107.17571,10.7615],[107.17468,10.76053],[107.17398,10.76044],[107.17386,10.75949],[107.17171,10.75789],[107.17106,10.75669],[107.17141,10.75604],[107.17088,10.75509],[107.16819,10.75281],[107.16753,10.75331],[107.16683,10.75283],[107.16698,10.75395],[107.16644,10.75405],[107.1657,10.75269],[107.16468,10.75189],[107.16372,10.74975],[107.1621,10.7498],[107.16075,10.74935],[107.16037,10.74819],[107.15888,10.74828],[107.15754,10.74673],[107.15715,10.7458],[107.15602,10.74613],[107.1544,10.74424],[107.15144,10.7441],[107.14864,10.74468],[107.14713,10.74451],[107.13843,10.74501],[107.1389,10.73975],[107.13884,10.73734],[107.13903,10.73254],[107.14414,10.73264],[107.1442,10.73222],[107.14629,10.73107],[107.1463,10.72984],[107.1449,10.73011],[107.14351,10.7292],[107.14344,10.72809],[107.14433,10.72785],[107.1455,10.72634],[107.1454,10.72504],[107.14342,10.72379],[107.14249,10.7238],[107.14189,10.72538],[107.14108,10.72618],[107.14094,10.7272],[107.13922,10.72788],[107.13934,10.72049],[107.14068,10.71948],[107.14056,10.71856],[107.13955,10.71819],[107.13977,10.70962],[107.13935,10.70962],[107.13852,10.70836],[107.13728,10.70818],[107.1378,10.70567],[107.13718,10.70403],[107.13687,10.7004],[107.13641,10.69968],[107.13491,10.69613],[107.13422,10.69491],[107.13446,10.6932],[107.1338,10.6901],[107.13393,10.68802],[107.13384,10.68507],[107.13238,10.68394],[107.13085,10.68337],[107.12968,10.68375],[107.12805,10.68276],[107.126,10.68228],[107.12505,10.68245],[107.1253,10.68181],[107.12343,10.67941],[107.12291,10.67952],[107.12305,10.67742],[107.12275,10.67621],[107.12134,10.67418],[107.12121,10.67316],[107.11971,10.67325],[107.11944,10.67233],[107.11827,10.67239],[107.11747,10.67105],[107.11664,10.67054],[107.11601,10.6709],[107.11547,10.67037],[107.11446,10.67053],[107.11319,10.66995],[107.1111,10.66972],[107.11003,10.66882],[107.10965,10.66788],[107.10856,10.66708],[107.10716,10.66507],[107.10512,10.66391],[107.10373,10.66396],[107.1014,10.66278],[107.10078,10.65893],[107.09902,10.65692],[107.09669,10.65213],[107.09649,10.65196],[107.0937,10.65311],[107.09077,10.65325],[107.08823,10.65319],[107.08529,10.6535],[107.08154,10.65365],[107.07781,10.65339],[107.07494,10.65382],[107.07286,10.65381],[107.06949,10.65349],[107.06689,10.65352],[107.06555,10.65466],[107.06448,10.65697],[107.06198,10.65748],[107.05863,10.65692],[107.05775,10.65698],[107.05437,10.65821],[107.05176,10.65813],[107.04903,10.65781],[107.04702,10.65778],[107.04446,10.65745],[107.0404,10.6562],[107.03831,10.65579],[107.03865,10.65501],[107.03242,10.65206],[107.02151,10.6468],[107.02015,10.6474],[107.01926,10.64673],[107.01915,10.64564],[107.01695,10.64496],[107.01392,10.64365],[107.01393,10.64064],[107.01597,10.6387],[107.01806,10.63301],[107.01752,10.63156],[107.01573,10.63147],[107.01425,10.63225],[107.0109,10.63521],[107.00859,10.63658],[107.0066,10.63715],[107.00261,10.63713],[107.00095,10.63602],[106.99877,10.6342],[106.99705,10.62977],[106.99684,10.62722],[106.99759,10.62317],[106.99913,10.62041],[107.00196,10.61794],[107.00829,10.61301],[107.00673,10.61004],[107.00538,10.60997],[107.003,10.61105],[107.0021,10.61043],[107.00252,10.60898],[107.00051,10.607],[106.99864,10.60781],[106.99763,10.6076],[106.9965,10.60588],[106.99592,10.60542],[106.99203,10.60572],[106.99077,10.6052],[106.9902,10.60414],[106.99069,10.60216],[106.99056,10.60055],[106.98957,10.59935],[106.98712,10.5972],[106.98633,10.59613],[106.98622,10.59489],[106.9871,10.59004],[106.9872,10.58778],[106.98584,10.58335],[106.98373,10.57921],[106.9819,10.58061],[106.97899,10.58213],[106.97571,10.58204],[106.9746,10.5826],[106.97335,10.58392],[106.96946,10.58867],[106.96763,10.5901],[106.96667,10.59052],[106.96433,10.59097],[106.96308,10.59164],[106.96119,10.59327],[106.95978,10.59375],[106.95791,10.59382],[106.95538,10.59421],[106.94986,10.59603],[106.94738,10.59716],[106.94601,10.59735],[106.94389,10.59679],[106.94218,10.59662],[106.94056,10.59706],[106.93784,10.59991],[106.93527,10.60016],[106.93371,10.6013],[106.92909,10.60261],[106.92752,10.60337],[106.92569,10.60495],[106.92436,10.6066],[106.92321,10.60846],[106.92168,10.60965],[106.92075,10.60995],[106.91899,10.60992],[106.91762,10.60933],[106.91563,10.60785],[106.91358,10.60741],[106.91244,10.60762],[106.91088,10.60853],[106.90983,10.60977],[106.90817,10.61311],[106.90707,10.6162],[106.90645,10.61874],[106.9051,10.62226],[106.90368,10.62451],[106.90184,10.62631],[106.89851,10.629],[106.89743,10.63033],[106.89599,10.63362],[106.89441,10.63566],[106.89342,10.63649],[106.88693,10.63896],[106.88521,10.64053],[106.88466,10.64241],[106.88453,10.64487],[106.88424,10.64594],[106.88309,10.64739],[106.88196,10.64798],[106.88003,10.64843],[106.87734,10.6486],[106.87478,10.6485],[106.87274,10.64784],[106.87139,10.6465],[106.87056,10.64412],[106.86906,10.64274],[106.86509,10.64237],[106.86353,10.64109],[106.86244,10.63841],[106.86115,10.63703],[106.86,10.63663],[106.85831,10.6368],[106.8551,10.63871],[106.85347,10.63934],[106.85192,10.63955],[106.8488,10.63949],[106.84438,10.63876],[106.84231,10.6376],[106.84147,10.63657],[106.84006,10.63365],[106.83797,10.62632],[106.83444,10.62694],[106.83078,10.62707],[106.82682,10.62801],[106.82369,10.62957],[106.82102,10.63176],[106.81796,10.63516],[106.8151,10.63892],[106.8128,10.64294],[106.81204,10.64543],[106.81037,10.65179],[106.80929,10.65435],[106.80753,10.65654],[106.80632,10.65753],[106.80173,10.66004],[106.79617,10.6639],[106.79283,10.66644],[106.78847,10.66924],[106.78648,10.67035],[106.78116,10.67303],[106.77901,10.67427],[106.77536,10.67655],[106.77029,10.6803],[106.76724,10.68289],[106.76482,10.6851],[106.7625,10.68742],[106.75821,10.69234],[106.75584,10.69553],[106.75478,10.69726],[106.75327,10.70048],[106.75191,10.70512],[106.75142,10.70745],[106.75117,10.71038],[106.75125,10.71347],[106.75192,10.71858],[106.7523,10.72042],[106.75366,10.72346],[106.75507,10.72537],[106.76487,10.73773],[106.76866,10.74314]]],[[[107.10428,10.41297],[107.10241,10.4115],[107.1006,10.41104],[107.09968,10.40973],[107.10031,10.40911],[107.10239,10.40791],[107.10324,10.40955],[107.10344,10.41113],[107.10428,10.41297]]],[[[107.09862,10.40484],[107.09926,10.40471],[107.09968,10.40544],[107.09883,10.40613],[107.09833,10.40551],[107.09862,10.40484]]],[[[107.09575,10.3946],[107.09658,10.39464],[107.09841,10.39729],[107.09803,10.39928],[107.09871,10.40091],[107.098,10.40236],[107.09723,10.40228],[107.09619,10.40072],[107.09549,10.39729],[107.0949,10.39626],[107.09525,10.39479],[107.09575,10.3946]]],[[[107.0891,10.32345],[107.0898,10.3239],[107.08872,10.32414],[107.0891,10.32345]]],[[[106.08853,8.5782],[106.08808,8.57761],[106.08923,8.5775],[106.08919,8.57825],[106.08853,8.5782]]],[[[106.14274,8.6105],[106.14291,8.60908],[106.14431,8.6074],[106.14453,8.60635],[106.14537,8.60676],[106.14523,8.6088],[106.14352,8.61046],[106.14274,8.6105]]],[[[106.58559,8.73741],[106.58431,8.73636],[106.58446,8.7359],[106.58643,8.73565],[106.58726,8.73494],[106.58824,8.73512],[106.58926,8.73667],[106.58791,8.73802],[106.58661,8.7373],[106.58559,8.73741]]],[[[106.63644,8.63767],[106.63582,8.63728],[106.6361,8.63634],[106.6368,8.63668],[106.63644,8.63767]]],[[[106.63231,8.63807],[106.63098,8.63865],[106.63035,8.63931],[106.62949,8.63906],[106.62914,8.63774],[106.62718,8.63667],[106.62724,8.63583],[106.62794,8.6359],[106.6293,8.63337],[106.62932,8.63258],[106.63081,8.63281],[106.63293,8.63514],[106.63532,8.63694],[106.63406,8.63767],[106.63231,8.63807]]],[[[106.54916,8.70825],[106.54921,8.7087],[106.55124,8.71011],[106.55144,8.71138],[106.55041,8.7118],[106.55018,8.70999],[106.54903,8.70889],[106.54792,8.70878],[106.54674,8.70932],[106.5457,8.70886],[106.54475,8.70896],[106.54348,8.70972],[106.54182,8.70923],[106.54055,8.71008],[106.53947,8.71002],[106.53897,8.70954],[106.53835,8.71023],[106.53742,8.70931],[106.53692,8.70937],[106.53642,8.70738],[106.53651,8.70636],[106.53723,8.70546],[106.5383,8.70534],[106.53963,8.70452],[106.54153,8.70476],[106.54308,8.70408],[106.54483,8.70386],[106.54682,8.70418],[106.54798,8.70647],[106.54884,8.7073],[106.54916,8.70825]]],[[[106.67501,8.65176],[106.67388,8.65081],[106.67528,8.64975],[106.67573,8.65133],[106.67501,8.65176]]],[[[106.73335,8.68774],[106.7357,8.68858],[106.73756,8.68712],[106.73992,8.68591],[106.73983,8.68404],[106.74041,8.68249],[106.74175,8.68393],[106.74235,8.68669],[106.74322,8.6878],[106.74371,8.69063],[106.7432,8.69241],[106.74365,8.69362],[106.74265,8.69496],[106.74141,8.69436],[106.74151,8.69748],[106.74171,8.69819],[106.74082,8.69905],[106.73968,8.69856],[106.73913,8.6971],[106.7385,8.6968],[106.73818,8.69527],[106.73752,8.69532],[106.73665,8.6945],[106.73593,8.69267],[106.73456,8.69126],[106.73335,8.68774]]],[[[106.71929,8.77922],[106.72057,8.77854],[106.71996,8.77953],[106.71929,8.77922]]],[[[106.55794,8.67684],[106.55813,8.67581],[106.55878,8.67689],[106.55794,8.67684]]],[[[106.55767,8.6302],[106.5562,8.62894],[106.55681,8.62825],[106.55818,8.62827],[106.55877,8.62919],[106.55767,8.6302]]],[[[106.71012,8.66873],[106.70979,8.66974],[106.70897,8.66954],[106.70733,8.67044],[106.70534,8.66979],[106.70412,8.6699],[106.70399,8.67143],[106.70293,8.67249],[106.7036,8.67418],[106.70289,8.67525],[106.70254,8.67685],[106.70118,8.67804],[106.70016,8.67829],[106.69918,8.67798],[106.69845,8.6787],[106.69736,8.67888],[106.69621,8.67969],[106.69552,8.67748],[106.69545,8.67567],[106.69493,8.67391],[106.69357,8.67123],[106.69288,8.67033],[106.69165,8.66969],[106.6906,8.67023],[106.68995,8.67145],[106.68792,8.67346],[106.68685,8.67422],[106.68629,8.67511],[106.68546,8.67488],[106.68317,8.67174],[106.68051,8.67086],[106.67995,8.6722],[106.67813,8.67499],[106.6773,8.67557],[106.67636,8.6775],[106.67557,8.67854],[106.67325,8.67996],[106.6722,8.68156],[106.6715,8.68127],[106.66993,8.68154],[106.66917,8.68125],[106.66689,8.68136],[106.66648,8.6818],[106.66415,8.68221],[106.66167,8.68087],[106.66041,8.6788],[106.65957,8.67843],[106.66086,8.67642],[106.66045,8.67535],[106.66126,8.67456],[106.66179,8.67301],[106.66373,8.67143],[106.66451,8.6703],[106.66635,8.66864],[106.66927,8.6636],[106.66915,8.66297],[106.67008,8.66122],[106.67107,8.66005],[106.67166,8.6588],[106.67295,8.65763],[106.67788,8.65597],[106.67829,8.65645],[106.67875,8.65885],[106.6788,8.66191],[106.67926,8.66277],[106.67964,8.66537],[106.68198,8.66737],[106.68291,8.66758],[106.68471,8.66702],[106.68804,8.66379],[106.69039,8.6624],[106.69105,8.66299],[106.69244,8.66252],[106.69599,8.6603],[106.69747,8.66078],[106.69808,8.66151],[106.69961,8.66184],[106.70059,8.66394],[106.70219,8.66474],[106.70398,8.66417],[106.70496,8.6634],[106.70799,8.66527],[106.70847,8.66623],[106.71019,8.66677],[106.71071,8.66779],[106.71012,8.66873]]],[[[106.55643,8.68911],[106.55493,8.68687],[106.55538,8.68418],[106.55627,8.68357],[106.55848,8.68321],[106.55951,8.6833],[106.5601,8.68505],[106.55867,8.68905],[106.5581,8.6893],[106.55731,8.68875],[106.55643,8.68911]]],[[[106.62239,8.63962],[106.62206,8.63905],[106.62254,8.63815],[106.62324,8.63795],[106.62329,8.6389],[106.62239,8.63962]]],[[[106.61802,8.63883],[106.61738,8.63769],[106.6173,8.63581],[106.61694,8.63544],[106.61806,8.63474],[106.61951,8.63505],[106.62053,8.63789],[106.61942,8.63892],[106.61802,8.63883]]],[[[106.5754,8.64449],[106.57627,8.6456],[106.5759,8.64656],[106.57513,8.6463],[106.57233,8.64791],[106.56911,8.64948],[106.56777,8.65066],[106.56514,8.65195],[106.56287,8.65231],[106.5621,8.65115],[106.55983,8.65101],[106.55894,8.65198],[106.55813,8.65347],[106.55803,8.65483],[106.55764,8.65537],[106.55638,8.65552],[106.55538,8.65675],[106.55455,8.65884],[106.55496,8.66023],[106.55439,8.66165],[106.55439,8.66275],[106.55377,8.6638],[106.55111,8.66505],[106.54976,8.66457],[106.55038,8.66247],[106.54998,8.66024],[106.54907,8.65893],[106.54904,8.6582],[106.54811,8.65726],[106.5474,8.65792],[106.54704,8.65974],[106.54543,8.66023],[106.5452,8.66064],[106.54322,8.66173],[106.54242,8.66123],[106.54123,8.66181],[106.54074,8.66125],[106.5402,8.65857],[106.54027,8.65661],[106.53992,8.65605],[106.54044,8.65488],[106.54046,8.65119],[106.54141,8.64891],[106.54196,8.64842],[106.54164,8.64782],[106.54288,8.6467],[106.54486,8.64715],[106.54742,8.64634],[106.54853,8.64496],[106.54833,8.64423],[106.54919,8.64414],[106.55018,8.64508],[106.55093,8.64643],[106.55318,8.64777],[106.55376,8.64707],[106.55354,8.64265],[106.55413,8.64023],[106.55435,8.63821],[106.55286,8.63609],[106.5538,8.63609],[106.55417,8.63514],[106.5555,8.6351],[106.55621,8.63437],[106.55749,8.63434],[106.55787,8.63331],[106.55875,8.63237],[106.55867,8.6309],[106.56019,8.63071],[106.55965,8.63271],[106.56005,8.63317],[106.56008,8.63445],[106.56108,8.63641],[106.56199,8.63651],[106.56322,8.63784],[106.56366,8.63877],[106.5653,8.63932],[106.56571,8.64035],[106.5678,8.64007],[106.56919,8.64035],[106.57024,8.63996],[106.57128,8.64044],[106.5717,8.64125],[106.57324,8.64138],[106.57421,8.64338],[106.5754,8.64449]]],[[[106.64498,8.70845],[106.64375,8.70913],[106.64203,8.70963],[106.64053,8.7114],[106.63936,8.71177],[106.63915,8.71422],[106.63872,8.71679],[106.63887,8.71926],[106.63963,8.72219],[106.64014,8.7234],[106.64085,8.72622],[106.64293,8.72995],[106.64492,8.73213],[106.64558,8.73186],[106.64737,8.73191],[106.64911,8.73104],[106.65089,8.73047],[106.65282,8.73038],[106.65488,8.73117],[106.65833,8.73066],[106.65889,8.73089],[106.66076,8.73039],[106.66147,8.73158],[106.66122,8.73239],[106.66305,8.73313],[106.66348,8.73472],[106.66351,8.73656],[106.66465,8.73851],[106.66436,8.73964],[106.66512,8.73946],[106.66532,8.74006],[106.66432,8.74037],[106.66329,8.74017],[106.66306,8.74109],[106.66181,8.74211],[106.66216,8.74313],[106.66146,8.74322],[106.66059,8.74406],[106.65924,8.74382],[106.65733,8.74425],[106.6566,8.7452],[106.65772,8.7463],[106.65703,8.74783],[106.6555,8.74845],[106.65522,8.74778],[106.65521,8.74603],[106.6556,8.74541],[106.65434,8.7457],[106.65303,8.74493],[106.65245,8.74518],[106.65297,8.74626],[106.65315,8.74757],[106.65377,8.74779],[106.653,8.74854],[106.65331,8.74942],[106.65285,8.75068],[106.65351,8.75105],[106.65436,8.75326],[106.65569,8.75435],[106.65639,8.75393],[106.65894,8.7538],[106.65986,8.7525],[106.66004,8.75126],[106.65945,8.75036],[106.66013,8.74979],[106.66144,8.74947],[106.66127,8.74755],[106.66161,8.74717],[106.66398,8.74672],[106.66546,8.74753],[106.66624,8.74734],[106.66643,8.74811],[106.66737,8.74871],[106.66851,8.75004],[106.66958,8.75031],[106.66943,8.75096],[106.66991,8.75319],[106.66967,8.75413],[106.66824,8.75534],[106.66752,8.75653],[106.66621,8.75723],[106.66432,8.75716],[106.66391,8.75849],[106.66463,8.75888],[106.66453,8.76024],[106.66356,8.76092],[106.66308,8.76037],[106.6619,8.76088],[106.66115,8.76036],[106.66009,8.76079],[106.6598,8.76016],[106.65794,8.75947],[106.65754,8.76016],[106.6564,8.7608],[106.65538,8.76036],[106.65383,8.75855],[106.65338,8.75736],[106.653,8.75523],[106.65183,8.7544],[106.65082,8.75463],[106.64924,8.75421],[106.64879,8.7545],[106.648,8.75336],[106.6458,8.75247],[106.64517,8.75329],[106.64328,8.75299],[106.64151,8.75354],[106.64063,8.75271],[106.63781,8.75173],[106.63791,8.75102],[106.6373,8.74945],[106.63619,8.74877],[106.63641,8.7476],[106.63547,8.74798],[106.63391,8.74798],[106.63357,8.74738],[106.63454,8.7472],[106.6352,8.74649],[106.63489,8.74565],[106.63242,8.74548],[106.63074,8.74469],[106.63026,8.74598],[106.62889,8.74621],[106.62852,8.74522],[106.62714,8.74433],[106.62601,8.74472],[106.62424,8.74364],[106.62271,8.74361],[106.62198,8.7423],[106.62212,8.74074],[106.62297,8.73973],[106.62362,8.73975],[106.62419,8.7387],[106.62431,8.73755],[106.62394,8.736],[106.6226,8.73363],[106.62126,8.73217],[106.6191,8.73128],[106.61818,8.73144],[106.61678,8.7334],[106.61579,8.73353],[106.61353,8.73457],[106.61128,8.73444],[106.61136,8.73389],[106.61062,8.73178],[106.61063,8.73054],[106.60997,8.72979],[106.6092,8.72979],[106.60632,8.72747],[106.60303,8.72699],[106.60245,8.72603],[106.60225,8.72468],[106.60162,8.72391],[106.60049,8.7237],[106.60029,8.72426],[106.59802,8.72557],[106.59594,8.72423],[106.59529,8.72489],[106.59348,8.72497],[106.59286,8.72439],[106.59348,8.72387],[106.59345,8.72262],[106.5928,8.72113],[106.59097,8.72037],[106.59035,8.71789],[106.58913,8.71716],[106.58904,8.71491],[106.59072,8.71098],[106.59036,8.70943],[106.59065,8.70792],[106.59036,8.70638],[106.58882,8.70588],[106.5866,8.70678],[106.58605,8.70654],[106.58574,8.70536],[106.58336,8.70481],[106.58288,8.7053],[106.58127,8.70563],[106.57989,8.70722],[106.5792,8.70694],[106.57855,8.70573],[106.57854,8.7034],[106.57807,8.70235],[106.57836,8.70173],[106.57716,8.69835],[106.57706,8.69721],[106.57526,8.69442],[106.57464,8.69298],[106.57463,8.6916],[106.57331,8.69134],[106.57211,8.69205],[106.57088,8.6922],[106.56931,8.69285],[106.56862,8.69211],[106.56853,8.68974],[106.56752,8.68814],[106.56642,8.68741],[106.56604,8.68566],[106.56254,8.68258],[106.56142,8.68316],[106.56087,8.68297],[106.56135,8.67966],[106.56005,8.6769],[106.56052,8.67552],[106.56139,8.67596],[106.56212,8.67555],[106.56248,8.67379],[106.56339,8.67204],[106.56347,8.67089],[106.56429,8.66929],[106.5651,8.66905],[106.56601,8.66726],[106.56646,8.66351],[106.56838,8.66239],[106.56986,8.66026],[106.56854,8.65928],[106.57084,8.65605],[106.5736,8.65325],[106.576,8.65119],[106.57679,8.65215],[106.57846,8.65036],[106.58053,8.64941],[106.58102,8.64809],[106.58084,8.64719],[106.57913,8.6465],[106.57713,8.64687],[106.57661,8.64654],[106.57714,8.64561],[106.58048,8.64483],[106.58251,8.6448],[106.58262,8.64532],[106.58361,8.64555],[106.5836,8.64638],[106.5846,8.64659],[106.58626,8.64519],[106.58835,8.6461],[106.58935,8.64608],[106.59119,8.64557],[106.59351,8.64537],[106.59453,8.64499],[106.59598,8.64522],[106.59962,8.64404],[106.60009,8.6434],[106.60138,8.64324],[106.60213,8.64193],[106.60399,8.64172],[106.60718,8.63994],[106.60924,8.64024],[106.61049,8.63976],[106.61341,8.64032],[106.61375,8.64097],[106.61329,8.64284],[106.61281,8.64355],[106.61164,8.64668],[106.60996,8.65071],[106.60813,8.65335],[106.60634,8.65441],[106.6062,8.65566],[106.60553,8.65596],[106.60436,8.65812],[106.6037,8.66082],[106.60226,8.66246],[106.60178,8.66385],[106.60077,8.66511],[106.59955,8.6652],[106.59894,8.66661],[106.59769,8.66776],[106.59751,8.66848],[106.59807,8.67063],[106.59877,8.67228],[106.60091,8.67572],[106.60351,8.67904],[106.60505,8.68022],[106.60676,8.68105],[106.6093,8.6813],[106.61025,8.68261],[106.61211,8.68391],[106.61539,8.68729],[106.61786,8.68904],[106.62035,8.69052],[106.62169,8.69108],[106.62407,8.69145],[106.62516,8.68959],[106.62632,8.68895],[106.62659,8.68782],[106.62725,8.68788],[106.62803,8.69059],[106.62911,8.69086],[106.63042,8.69516],[106.63145,8.69702],[106.6325,8.69824],[106.63429,8.69973],[106.63578,8.7004],[106.63691,8.70056],[106.63725,8.70005],[106.63904,8.69951],[106.64138,8.6991],[106.64347,8.69895],[106.64554,8.69783],[106.64655,8.69688],[106.64851,8.69596],[106.64932,8.69527],[106.65064,8.69301],[106.65059,8.69238],[106.65174,8.69104],[106.65238,8.69179],[106.65529,8.69294],[106.65659,8.69323],[106.65842,8.69303],[106.65934,8.69252],[106.66016,8.6939],[106.65998,8.69574],[106.65892,8.69646],[106.65849,8.69726],[106.65746,8.69683],[106.65534,8.69993],[106.64839,8.7053],[106.64498,8.70845]]],[[[106.97315,10.47109],[106.97206,10.46981],[106.97175,10.46865],[106.97296,10.46697],[106.97287,10.46658],[106.97361,10.46354],[106.97373,10.46145],[106.97318,10.46066],[106.97388,10.45996],[106.97642,10.46099],[106.97612,10.46285],[106.97636,10.46338],[106.97533,10.46719],[106.97627,10.4694],[106.97734,10.47079],[106.97803,10.47228],[106.97806,10.47359],[106.97732,10.47371],[106.97428,10.47069],[106.97361,10.4714],[106.97315,10.47109]]],[[[106.98481,10.48531],[106.98466,10.48428],[106.98367,10.48241],[106.98316,10.48006],[106.98497,10.47971],[106.98555,10.4803],[106.98726,10.48047],[106.98756,10.4814],[106.98664,10.48209],[106.98548,10.48557],[106.98481,10.48531]]],[[[106.98323,10.49548],[106.98336,10.49418],[106.98423,10.49217],[106.98517,10.4912],[106.98529,10.49226],[106.98595,10.4926],[106.98787,10.49517],[106.98888,10.49559],[106.98893,10.49654],[106.99023,10.49809],[106.99184,10.49893],[106.99087,10.50002],[106.9918,10.50011],[106.99131,10.50068],[106.99218,10.50137],[106.99099,10.50282],[106.99108,10.50359],[106.98998,10.50477],[106.98894,10.50489],[106.98779,10.50435],[106.98863,10.50368],[106.98923,10.50385],[106.98879,10.50269],[106.98773,10.50197],[106.98697,10.50243],[106.98668,10.50342],[106.98483,10.50023],[106.98477,10.49888],[106.98389,10.49842],[106.98341,10.49712],[106.98323,10.49548]]]]},"properties":{"id":1,"name":"Thành phố Hồ Chí Minh"}}]}